{"type":"FeatureCollection","attribution":"Zone boundaries © OpenStreetMap contributors (ODbL); boundaries approximate","features":[{"type":"Feature","properties":{"id":"commons-beach","name":"Lake Tahoe Commons Beach","policy":"no-dogs","note":"Dogs prohibited on the sand, lawn, and picnic areas; leashed dogs may pass through on the paved trail at the upper edge.","source_url":"https://www.tcpud.org/parks-facilities/facilities-parks-and-rentals/beaches/commons-beach","venue":"lake-tahoe-commons-beach","acres":5.35,"approx":false,"osm":"way/412835708"},"geometry":{"type":"Polygon","coordinates":[[[-120.14266,39.16915],[-120.14182,39.16909],[-120.14066,39.1705],[-120.13992,39.1711],[-120.13951,39.17128],[-120.13825,39.17145],[-120.13845,39.1716],[-120.13933,39.17145],[-120.1399,39.17171],[-120.14264,39.16947],[-120.14244,39.16933],[-120.14266,39.16915]]]}},{"type":"Feature","properties":{"id":"lake-forest-beach","name":"Lake Forest Beach Park","policy":"no-dogs","note":"County beach rules are explicit — no dogs on the beach or in the water.","source_url":"https://www.placer.ca.gov/10337/PCSO-reminder-to-follow-beach-rules","venue":"lake-forest-beach","acres":5.33,"approx":false,"osm":"way/257357947"},"geometry":{"type":"Polygon","coordinates":[[[-120.11594,39.18199],[-120.11544,39.18199],[-120.11534,39.18095],[-120.11294,39.18255],[-120.10938,39.18365],[-120.1093,39.18348],[-120.11187,39.1827],[-120.11309,39.18219],[-120.11486,39.18068],[-120.11595,39.18087],[-120.11594,39.18199]]]}},{"type":"Feature","properties":{"id":"william-kent-beach","name":"William Kent Beach","policy":"no-dogs","note":"One of six USFS designated swim beaches where pets are prohibited.","source_url":"https://www.fs.usda.gov/r05/laketahoebasin/recreation/where-can-i-take-my-dog-lake-tahoe","venue":null,"acres":0.33,"approx":false,"osm":"way/300847916"},"geometry":{"type":"Polygon","coordinates":[[[-120.15282,39.14149],[-120.15265,39.14178],[-120.15264,39.14166],[-120.15302,39.14096],[-120.15321,39.13976],[-120.1532,39.1406],[-120.15282,39.14149]]]}},{"type":"Feature","properties":{"id":"tahoe-city-dog-park","name":"Tahoe City Dog Park","policy":"off-leash","note":"The designated off-leash spot in town — dawn to dusk, water and clean-up bags on site; closes for winter after the first snow. Location approximate.","source_url":"https://www.tcpud.org/parks-recreation/facilities-parks-and-rentals/parks/dog-park","venue":"tahoe-city-dog-park","acres":null,"approx":true,"osm":null},"geometry":{"type":"Polygon","coordinates":[[[-120.14144,39.17399],[-120.14146,39.1741],[-120.14151,39.17419],[-120.14159,39.17428],[-120.1417,39.17434],[-120.14183,39.17438],[-120.14196,39.1744],[-120.14209,39.17438],[-120.14222,39.17434],[-120.14233,39.17428],[-120.14241,39.17419],[-120.14246,39.1741],[-120.14248,39.17399],[-120.14246,39.17388],[-120.14241,39.17379],[-120.14233,39.1737],[-120.14222,39.17364],[-120.14209,39.1736],[-120.14196,39.17358],[-120.14183,39.1736],[-120.1417,39.17364],[-120.14159,39.1737],[-120.14151,39.17379],[-120.14146,39.17388],[-120.14144,39.17399]]]}},{"type":"Feature","properties":{"id":"pomin-boat-ramp","name":"Tahoe City PUD Boat Ramp","policy":"leashed","note":"TCPUD's sanctioned dog water access — dogs allowed next to the boat ramp; Placer County leash law applies.","source_url":"http://www.tcpud.org/your-district/frequently-asked-questions","venue":"lake-forest-boat-ramp","acres":3.8,"approx":false,"osm":"way/508007314"},"geometry":{"type":"Polygon","coordinates":[[[-120.11876,39.18277],[-120.11874,39.18405],[-120.119,39.18406],[-120.11902,39.18359],[-120.11969,39.1836],[-120.11984,39.18121],[-120.11964,39.1812],[-120.11934,39.1814],[-120.11928,39.18278],[-120.11876,39.18277]]]}},{"type":"Feature","properties":{"id":"gatekeepers-day-use","name":"Gate Keepers Cottage","policy":"leashed","note":"The one State Parks shoreline in town where leashed dogs are legal — the day-use area at the Truckee River outlet. Boundary approximate.","source_url":"https://www.parks.ca.gov/?page_id=504","venue":"gatekeepers-day-use-area","acres":3.59,"approx":false,"osm":"relation/18274992"},"geometry":{"type":"MultiPolygon","coordinates":[[[[-120.14328,39.166],[-120.14381,39.16607],[-120.14418,39.16671],[-120.14315,39.16729],[-120.14277,39.16714],[-120.14231,39.16662],[-120.14268,39.1666],[-120.14285,39.16644],[-120.14309,39.16648],[-120.14307,39.16621],[-120.14328,39.166]]],[[[-120.14361,39.16763],[-120.14397,39.16746],[-120.14444,39.16698],[-120.14457,39.16719],[-120.14405,39.16772],[-120.14381,39.1676],[-120.14344,39.16789],[-120.14336,39.16783],[-120.14361,39.16763]]]]}},{"type":"Feature","properties":{"id":"sixty-four-acres","name":"64-Acres Park","policy":"leashed","note":"Trailhead park and riverbank — leashed dogs welcome on the paved network and at the water's edge.","source_url":"https://www.tcpud.org/trails","venue":"64-acres-park","acres":54.6,"approx":false,"osm":"relation/10961883"},"geometry":{"type":"MultiPolygon","coordinates":[[[[-120.15129,39.16175],[-120.1521,39.16175],[-120.15239,39.16234],[-120.15155,39.16223],[-120.1505,39.16226],[-120.14928,39.16257],[-120.148,39.16446],[-120.14629,39.16595],[-120.14531,39.16629],[-120.14443,39.16564],[-120.14404,39.16589],[-120.14424,39.16422],[-120.14447,39.16326],[-120.14477,39.16283],[-120.14488,39.16195],[-120.1455,39.16194],[-120.14551,39.16175],[-120.15129,39.16175]]],[[[-120.14383,39.1651],[-120.14176,39.16314],[-120.14193,39.16247],[-120.14189,39.16196],[-120.14258,39.16197],[-120.14332,39.1622],[-120.14366,39.16196],[-120.14465,39.16195],[-120.14446,39.16256],[-120.14417,39.16288],[-120.14425,39.16327],[-120.14383,39.1651]]]]}},{"type":"Feature","properties":{"id":"tahoe-sra","name":"Tahoe State Recreational Area","policy":"no-dogs","note":"Dogs are limited to the Gatekeepers day-use area; the campground and its beach are a no-dog zone.","source_url":"https://www.parks.ca.gov/?page_id=504","venue":"gatekeepers-day-use-area","acres":12.76,"approx":false,"osm":"relation/7398775"},"geometry":{"type":"MultiPolygon","coordinates":[[[[-120.13571,39.17594],[-120.13703,39.17487],[-120.13901,39.1764],[-120.13503,39.17639],[-120.13571,39.17594]]],[[[-120.13502,39.17399],[-120.13541,39.17361],[-120.13684,39.17469],[-120.13497,39.17608],[-120.13502,39.17399]]]]}},{"type":"Feature","properties":{"id":"burton-creek-sp","name":"Burton Creek State Park","policy":"restricted","note":"State Parks baseline — dogs on paved roads only, max 6-foot leash, and ski trails closed to dogs Nov 1 – May 1.","source_url":"https://www.parks.ca.gov/pages/499/files/DSO%20683-22-002%20Dogs.pdf","venue":null,"acres":1907.26,"approx":false,"osm":"way/38224485"},"geometry":{"type":"Polygon","coordinates":[[[-120.13264,39.20577],[-120.13258,39.19831],[-120.12336,39.19835],[-120.1233,39.18648],[-120.12485,39.18648],[-120.12463,39.18575],[-120.12416,39.18518],[-120.12371,39.18409],[-120.12451,39.1837],[-120.13495,39.1837],[-120.13495,39.1829],[-120.13245,39.17832],[-120.13502,39.17699],[-120.13503,39.17639],[-120.13901,39.1764],[-120.14373,39.18368],[-120.1608,39.18375],[-120.16101,39.20566],[-120.13264,39.20577]]]}},{"type":"Feature","properties":{"id":"trail-cycleway-Olympic Valley Bike Trail","name":"Olympic Valley Bike Trail","kind":"trail","policy":"leashed","note":"TCPUD's paved network — dogs on a short leash, kept to the handler's side; shared with bikes.","source_url":"https://www.tcpud.org/trails","venue":"truckee-river-trail","acres":null,"miles":0.5,"approx":false,"osm":null},"geometry":{"type":"MultiLineString","coordinates":[[[-120.20785,39.2055],[-120.20785,39.20515],[-120.20759,39.20485],[-120.20557,39.2047],[-120.20387,39.2041],[-120.20302,39.20362],[-120.20116,39.20348],[-120.20049,39.20359],[-120.19987,39.2046],[-120.19949,39.20471]]]}},{"type":"Feature","properties":{"id":"trail-cycleway-Paved multi-use trail","name":"Paved multi-use trail","kind":"trail","policy":"leashed","note":"TCPUD's paved network — dogs on a short leash, kept to the handler's side; shared with bikes.","source_url":"https://www.tcpud.org/trails","venue":"truckee-river-trail","acres":null,"miles":7.7,"approx":false,"osm":null},"geometry":{"type":"MultiLineString","coordinates":[[[-120.13587,39.17549],[-120.13669,39.17479]],[[-120.14527,39.16608],[-120.14515,39.16628],[-120.14429,39.16661]],[[-120.13801,39.17146],[-120.13865,39.1715]],[[-120.14418,39.16738],[-120.14434,39.16717],[-120.1445,39.16725]],[[-120.11256,39.18986],[-120.11306,39.1898],[-120.11332,39.18962]],[[-120.10839,39.19014],[-120.10963,39.19001]],[[-120.14538,39.16602],[-120.14524,39.16598],[-120.14527,39.16608]],[[-120.14686,39.16494],[-120.14676,39.16489],[-120.14676,39.16498]],[[-120.10641,39.19083],[-120.10785,39.19026]],[[-120.13652,39.17263],[-120.13709,39.17203],[-120.13739,39.1718],[-120.13793,39.17164],[-120.13801,39.17146]],[[-120.14418,39.16738],[-120.14336,39.16795]],[[-120.10471,39.19231],[-120.10559,39.19135],[-120.10622,39.19096]],[[-120.1365,39.1727],[-120.13652,39.17263]],[[-120.14768,39.16525],[-120.14727,39.16498]],[[-120.13591,39.17315],[-120.13613,39.17293]],[[-120.14523,39.16599],[-120.14445,39.16559],[-120.14417,39.16527]],[[-120.13151,39.17812],[-120.13485,39.17623]],[[-120.14417,39.16527],[-120.14424,39.16465],[-120.1446,39.16393],[-120.14482,39.16291]],[[-120.12135,39.18478],[-120.12213,39.18468],[-120.12373,39.18378]],[[-120.13994,39.17118],[-120.14179,39.17003],[-120.14206,39.16973]],[[-120.14676,39.16498],[-120.14667,39.16531],[-120.14538,39.16602]],[[-120.11231,39.1899],[-120.1122,39.18991]],[[-120.11244,39.18987],[-120.11256,39.18986]],[[-120.12135,39.18478],[-120.1213,39.18488]],[[-120.13579,39.17559],[-120.13587,39.17549]],[[-120.12373,39.18378],[-120.12388,39.18369]],[[-120.13485,39.17623],[-120.13496,39.17613]],[[-120.10801,39.19022],[-120.10827,39.19016]],[[-120.13557,39.17354],[-120.13573,39.17341]],[[-120.11231,39.1899],[-120.11244,39.18987]],[[-120.11093,39.18995],[-120.11077,39.18996]],[[-120.11121,39.18992],[-120.11143,39.1899]],[[-120.11332,39.18962],[-120.11348,39.1896]],[[-120.11102,39.18994],[-120.11121,39.18992]],[[-120.14844,39.16313],[-120.14827,39.16284],[-120.148,39.16269],[-120.14752,39.16286],[-120.14659,39.16286],[-120.14486,39.16226]],[[-120.14464,39.16503],[-120.1448,39.16513]],[[-120.14728,39.1645],[-120.14738,39.16473]],[[-120.14678,39.16489],[-120.14544,39.1648],[-120.1446,39.16525],[-120.14417,39.16527]],[[-120.14206,39.16973],[-120.14223,39.16952]],[[-120.14714,39.16488],[-120.14697,39.16493]],[[-120.13865,39.1715],[-120.13924,39.17136]],[[-120.12715,39.1824],[-120.12788,39.1821],[-120.12899,39.18131],[-120.13075,39.17879],[-120.13151,39.17812]],[[-120.13573,39.17341],[-120.13591,39.17315]],[[-120.13924,39.17136],[-120.13977,39.17132],[-120.13994,39.17118]],[[-120.11348,39.1896],[-120.11384,39.18963],[-120.1149,39.1893],[-120.11853,39.18768],[-120.11971,39.18688],[-120.12135,39.18525],[-120.1213,39.18488]],[[-120.10975,39.19],[-120.11068,39.18996]],[[-120.11143,39.1899],[-120.1122,39.18991]],[[-120.13613,39.17293],[-120.1365,39.1727]],[[-120.14223,39.16952],[-120.14243,39.16931],[-120.14236,39.16917]],[[-120.13496,39.17613],[-120.13579,39.17559]],[[-120.15774,39.13259],[-120.16139,39.12914],[-120.16197,39.12792],[-120.1618,39.12777],[-120.16184,39.12763],[-120.16263,39.12585],[-120.16256,39.12508],[-120.16169,39.12331],[-120.16124,39.12078],[-120.1605,39.11912],[-120.15979,39.11835],[-120.15911,39.11805],[-120.15873,39.11802],[-120.15843,39.11782],[-120.1583,39.11755],[-120.15824,39.11728],[-120.15846,39.11571],[-120.15794,39.11404],[-120.15807,39.11303],[-120.15839,39.11217],[-120.16076,39.10981],[-120.16119,39.10747]],[[-120.14482,39.16291],[-120.1447,39.16258],[-120.14486,39.16226],[-120.14481,39.16197],[-120.14575,39.15921],[-120.1461,39.15694],[-120.14621,39.15234],[-120.14566,39.15027],[-120.14587,39.14926],[-120.14667,39.14809],[-120.14768,39.14738],[-120.14765,39.14716],[-120.14909,39.14667],[-120.15125,39.14613],[-120.15206,39.14573],[-120.15269,39.14515]],[[-120.12388,39.18369],[-120.12711,39.18241]],[[-120.12715,39.1824],[-120.12711,39.18241]],[[-120.15756,39.13278],[-120.15774,39.13259]],[[-120.15391,39.13996],[-120.15378,39.13982],[-120.15409,39.13953],[-120.1542,39.13787],[-120.15507,39.13596],[-120.15523,39.13573],[-120.15545,39.13575],[-120.15605,39.13524],[-120.15599,39.1348],[-120.15756,39.13278]],[[-120.14417,39.16527],[-120.14399,39.16533],[-120.14395,39.16583],[-120.14429,39.16661]],[[-120.14527,39.16608],[-120.14538,39.16602]],[[-120.14676,39.16498],[-120.14686,39.16494]],[[-120.14697,39.16493],[-120.14686,39.16494]],[[-120.14772,39.16527],[-120.14768,39.16525]],[[-120.14714,39.16597],[-120.14723,39.16602]]]}},{"type":"Feature","properties":{"id":"trail-cycleway-Tahoe Rim Trail","name":"Tahoe Rim Trail","kind":"trail","policy":"leashed","note":"TCPUD's paved network — dogs on a short leash, kept to the handler's side; shared with bikes.","source_url":"https://www.tcpud.org/trails","venue":"truckee-river-trail","acres":null,"miles":0.2,"approx":false,"osm":null},"geometry":{"type":"MultiLineString","coordinates":[[[-120.14727,39.16498],[-120.14714,39.16488]],[[-120.14738,39.16473],[-120.14714,39.16488]],[[-120.14844,39.16313],[-120.14836,39.16333],[-120.14851,39.16357],[-120.1483,39.16391],[-120.14792,39.164],[-120.14779,39.16443],[-120.14738,39.16473]]]}},{"type":"Feature","properties":{"id":"trail-cycleway-Truckee River Bike Trail","name":"Truckee River Bike Trail","kind":"trail","policy":"leashed","note":"TCPUD's paved network — dogs on a short leash, kept to the handler's side; shared with bikes.","source_url":"https://www.tcpud.org/trails","venue":"truckee-river-trail","acres":null,"miles":5.0,"approx":false,"osm":null},"geometry":{"type":"MultiLineString","coordinates":[[[-120.14772,39.16527],[-120.14836,39.16468],[-120.14903,39.16374],[-120.14985,39.16378],[-120.15133,39.16358],[-120.15385,39.16356],[-120.15553,39.16379],[-120.15944,39.16318],[-120.16142,39.16317],[-120.16341,39.16298],[-120.1663,39.16308],[-120.1676,39.16343],[-120.1693,39.16425],[-120.17253,39.16452],[-120.17466,39.16526],[-120.1772,39.16524],[-120.17835,39.16538],[-120.18049,39.16676],[-120.18261,39.16718],[-120.18312,39.1674],[-120.18481,39.1691],[-120.18751,39.17114],[-120.18933,39.17399],[-120.18971,39.17558],[-120.19076,39.17743],[-120.19232,39.17895],[-120.19559,39.18253]],[[-120.20106,39.20072],[-120.20131,39.20106]],[[-120.20131,39.20106],[-120.19928,39.20459],[-120.19949,39.20471]],[[-120.14709,39.16595],[-120.14772,39.16527]],[[-120.19851,39.19658],[-120.1986,39.19748],[-120.1996,39.19819],[-120.19986,39.19886],[-120.20063,39.19925],[-120.20105,39.19971],[-120.2012,39.20025],[-120.20106,39.20072]],[[-120.19853,39.19637],[-120.19851,39.19658]],[[-120.19577,39.18356],[-120.19478,39.18521],[-120.19481,39.186],[-120.19535,39.18755],[-120.19699,39.18992],[-120.19736,39.19071],[-120.19729,39.19201],[-120.19667,39.19337],[-120.19693,39.19466],[-120.19742,39.19554],[-120.19827,39.19602],[-120.19853,39.19637]],[[-120.19559,39.18253],[-120.19577,39.18356]],[[-120.14714,39.16597],[-120.14709,39.16595]]]}},{"type":"Feature","properties":{"id":"trail-named-path-Angry Bear","name":"Angry Bear","kind":"trail","policy":"leashed","note":"National-forest trail — the Forest Service asks that dogs be leashed at all times; designated swim beaches are the exception, not trails.","source_url":"https://www.fs.usda.gov/r05/laketahoebasin/recreation/where-can-i-take-my-dog-lake-tahoe","venue":null,"acres":null,"miles":1.6,"approx":false,"osm":null},"geometry":{"type":"MultiLineString","coordinates":[[[-120.15281,39.18855],[-120.15251,39.18808],[-120.1525,39.18677],[-120.15269,39.18592],[-120.1526,39.18521],[-120.15227,39.1855],[-120.15218,39.18518],[-120.15142,39.18645],[-120.15074,39.18609],[-120.15039,39.18606],[-120.14997,39.18548],[-120.14961,39.18558],[-120.14998,39.18442],[-120.14985,39.18376],[-120.15001,39.18347],[-120.14968,39.18303],[-120.1491,39.18305],[-120.14907,39.18271],[-120.14934,39.18187],[-120.14926,39.18152],[-120.14904,39.18167],[-120.14892,39.18135],[-120.14857,39.18151],[-120.14866,39.18083],[-120.14926,39.18028],[-120.14917,39.18019],[-120.14869,39.18023],[-120.14873,39.17968],[-120.14953,39.17927],[-120.14972,39.17892],[-120.15066,39.17812],[-120.15008,39.1782],[-120.14978,39.1784],[-120.14985,39.17815],[-120.15019,39.17783],[-120.14961,39.17803],[-120.14763,39.17771],[-120.14742,39.17728],[-120.14711,39.17718],[-120.14722,39.17676],[-120.14674,39.17649],[-120.14677,39.17619],[-120.14744,39.17577]]]}},{"type":"Feature","properties":{"id":"trail-named-path-BP","name":"BP","kind":"trail","policy":"leashed","note":"National-forest trail — the Forest Service asks that dogs be leashed at all times; designated swim beaches are the exception, not trails.","source_url":"https://www.fs.usda.gov/r05/laketahoebasin/recreation/where-can-i-take-my-dog-lake-tahoe","venue":null,"acres":null,"miles":0.1,"approx":false,"osm":null},"geometry":{"type":"MultiLineString","coordinates":[[[-120.10278,39.21644],[-120.10315,39.21477]]]}},{"type":"Feature","properties":{"id":"trail-named-path-Bear Creek Trail","name":"Bear Creek Trail","kind":"trail","policy":"leashed","note":"National-forest trail — the Forest Service asks that dogs be leashed at all times; designated swim beaches are the exception, not trails.","source_url":"https://www.fs.usda.gov/r05/laketahoebasin/recreation/where-can-i-take-my-dog-lake-tahoe","venue":null,"acres":null,"miles":1.5,"approx":false,"osm":null},"geometry":{"type":"MultiLineString","coordinates":[[[-120.21639,39.17608],[-120.21416,39.17692],[-120.21338,39.17738],[-120.21242,39.1782],[-120.21195,39.17885],[-120.21052,39.17988],[-120.20874,39.18048],[-120.20842,39.18071],[-120.20757,39.18177],[-120.20726,39.18273],[-120.20612,39.18367],[-120.20579,39.18429],[-120.20608,39.18603]],[[-120.21673,39.17598],[-120.21799,39.17586],[-120.21982,39.17547],[-120.22057,39.17564],[-120.22134,39.17621],[-120.22193,39.1764],[-120.22239,39.17641],[-120.22304,39.17606],[-120.22408,39.1761],[-120.2251,39.17636],[-120.22559,39.17685]],[[-120.21668,39.17598],[-120.21673,39.17598]]]}},{"type":"Feature","properties":{"id":"trail-named-path-Bear Trap Connector","name":"Bear Trap Connector","kind":"trail","policy":"leashed","note":"National-forest trail — the Forest Service asks that dogs be leashed at all times; designated swim beaches are the exception, not trails.","source_url":"https://www.fs.usda.gov/r05/laketahoebasin/recreation/where-can-i-take-my-dog-lake-tahoe","venue":null,"acres":null,"miles":0.6,"approx":false,"osm":null},"geometry":{"type":"MultiLineString","coordinates":[[[-120.1695,39.2001],[-120.16859,39.19959],[-120.16785,39.19942],[-120.16722,39.19941],[-120.1662,39.19979],[-120.16561,39.19976],[-120.16505,39.19992],[-120.16492,39.20003],[-120.16502,39.20068],[-120.16468,39.20101],[-120.16326,39.20173],[-120.16264,39.2018],[-120.16226,39.20205],[-120.16135,39.20226],[-120.1609,39.20315],[-120.16039,39.20343]]]}},{"type":"Feature","properties":{"id":"trail-named-path-Cedar Flat Trail","name":"Cedar Flat Trail","kind":"trail","policy":"leashed","note":"National-forest trail — the Forest Service asks that dogs be leashed at all times; designated swim beaches are the exception, not trails.","source_url":"https://www.fs.usda.gov/r05/laketahoebasin/recreation/where-can-i-take-my-dog-lake-tahoe","venue":null,"acres":null,"miles":1.3,"approx":false,"osm":null},"geometry":{"type":"MultiLineString","coordinates":[[[-120.11995,39.21452],[-120.12039,39.21421],[-120.12106,39.21411],[-120.12164,39.21381],[-120.12259,39.21386],[-120.123,39.21344],[-120.12373,39.21311]],[[-120.11329,39.21568],[-120.11418,39.21536],[-120.11452,39.21543],[-120.11478,39.21531],[-120.1157,39.21526],[-120.116,39.21497],[-120.11687,39.21486],[-120.11735,39.21415],[-120.11753,39.21415],[-120.11761,39.21402],[-120.11855,39.21465],[-120.11961,39.21565],[-120.11963,39.215],[-120.11995,39.21452]],[[-120.12729,39.21302],[-120.12769,39.21309],[-120.12823,39.21341],[-120.12946,39.21384],[-120.12984,39.21374],[-120.13023,39.21322],[-120.13049,39.21311],[-120.13247,39.21305],[-120.1338,39.21317]],[[-120.12373,39.21311],[-120.12453,39.21305],[-120.12646,39.21323],[-120.12729,39.21302]]]}},{"type":"Feature","properties":{"id":"trail-named-path-Charging Bear","name":"Charging Bear","kind":"trail","policy":"leashed","note":"National-forest trail — the Forest Service asks that dogs be leashed at all times; designated swim beaches are the exception, not trails.","source_url":"https://www.fs.usda.gov/r05/laketahoebasin/recreation/where-can-i-take-my-dog-lake-tahoe","venue":null,"acres":null,"miles":1.0,"approx":false,"osm":null},"geometry":{"type":"MultiLineString","coordinates":[[[-120.16554,39.2067],[-120.16741,39.20693],[-120.16851,39.20734],[-120.16889,39.20691],[-120.16906,39.20635],[-120.16945,39.20593],[-120.16975,39.20523],[-120.16999,39.20606],[-120.17038,39.2054],[-120.17054,39.20464],[-120.17134,39.20423],[-120.17159,39.20396],[-120.17281,39.20397],[-120.17263,39.20356],[-120.17155,39.20268],[-120.1704,39.2024],[-120.17058,39.20224],[-120.17053,39.20213],[-120.16936,39.20215],[-120.16955,39.20181],[-120.16994,39.20161],[-120.17007,39.20138],[-120.16967,39.20103],[-120.16965,39.2007],[-120.16923,39.2007]]]}},{"type":"Feature","properties":{"id":"trail-named-path-Cinder Cone","name":"Cinder Cone","kind":"trail","policy":"leashed","note":"National-forest trail — the Forest Service asks that dogs be leashed at all times; designated swim beaches are the exception, not trails.","source_url":"https://www.fs.usda.gov/r05/laketahoebasin/recreation/where-can-i-take-my-dog-lake-tahoe","venue":null,"acres":null,"miles":0.3,"approx":false,"osm":null},"geometry":{"type":"MultiLineString","coordinates":[[[-120.18565,39.19963],[-120.18549,39.19992],[-120.18554,39.20021],[-120.18566,39.20039],[-120.18588,39.20045]],[[-120.18588,39.20045],[-120.18609,39.20036],[-120.18635,39.20045],[-120.18664,39.20105],[-120.18658,39.20212],[-120.18636,39.20282]]]}},{"type":"Feature","properties":{"id":"trail-named-path-Cinder Cone Spur","name":"Cinder Cone Spur","kind":"trail","policy":"leashed","note":"National-forest trail — the Forest Service asks that dogs be leashed at all times; designated swim beaches are the exception, not trails.","source_url":"https://www.fs.usda.gov/r05/laketahoebasin/recreation/where-can-i-take-my-dog-lake-tahoe","venue":null,"acres":null,"miles":0.1,"approx":false,"osm":null},"geometry":{"type":"MultiLineString","coordinates":[[[-120.18873,39.20054],[-120.19,39.20153],[-120.19034,39.20206]]]}},{"type":"Feature","properties":{"id":"trail-named-path-Class Cutter","name":"Class Cutter","kind":"trail","policy":"leashed","note":"National-forest trail — the Forest Service asks that dogs be leashed at all times; designated swim beaches are the exception, not trails.","source_url":"https://www.fs.usda.gov/r05/laketahoebasin/recreation/where-can-i-take-my-dog-lake-tahoe","venue":null,"acres":null,"miles":0.1,"approx":false,"osm":null},"geometry":{"type":"MultiLineString","coordinates":[[[-120.11791,39.19738],[-120.11807,39.19804],[-120.11792,39.1986]]]}},{"type":"Feature","properties":{"id":"trail-named-path-Climbers approach trail to Twin Crags","name":"Climbers approach trail to Twin Crags","kind":"trail","policy":"leashed","note":"National-forest trail — the Forest Service asks that dogs be leashed at all times; designated swim beaches are the exception, not trails.","source_url":"https://www.fs.usda.gov/r05/laketahoebasin/recreation/where-can-i-take-my-dog-lake-tahoe","venue":null,"acres":null,"miles":0.2,"approx":false,"osm":null},"geometry":{"type":"MultiLineString","coordinates":[[[-120.16034,39.16453],[-120.16038,39.16472],[-120.16073,39.1648],[-120.16062,39.165],[-120.16073,39.16515],[-120.16142,39.16533],[-120.16169,39.16567],[-120.16214,39.16589],[-120.16212,39.16612],[-120.16171,39.16632],[-120.16164,39.16656]]]}},{"type":"Feature","properties":{"id":"trail-named-path-Dollar Creek Shared Use Path","name":"Dollar Creek Shared Use Path","kind":"trail","policy":"leashed","note":"National-forest trail — the Forest Service asks that dogs be leashed at all times; designated swim beaches are the exception, not trails.","source_url":"https://www.fs.usda.gov/r05/laketahoebasin/recreation/where-can-i-take-my-dog-lake-tahoe","venue":null,"acres":null,"miles":2.2,"approx":false,"osm":null},"geometry":{"type":"MultiLineString","coordinates":[[[-120.1039,39.21122],[-120.10444,39.21138],[-120.10416,39.21209],[-120.10443,39.21242],[-120.10513,39.21287],[-120.10559,39.21284],[-120.10613,39.21253],[-120.10623,39.21216],[-120.10672,39.21163],[-120.10667,39.21128],[-120.10619,39.21043],[-120.10672,39.20929],[-120.10672,39.2089],[-120.10633,39.20805],[-120.10636,39.20749],[-120.10657,39.2071],[-120.10718,39.2067],[-120.10873,39.20663],[-120.10993,39.20624],[-120.11131,39.20501],[-120.11125,39.20482],[-120.11038,39.20461],[-120.10915,39.204],[-120.10869,39.20395],[-120.10848,39.20438],[-120.10822,39.20446],[-120.10695,39.20381],[-120.10655,39.20315],[-120.10664,39.20237],[-120.10691,39.20191],[-120.10696,39.20146],[-120.10755,39.20097],[-120.10759,39.2006]],[[-120.10777,39.20015],[-120.10771,39.19964],[-120.1068,39.19907],[-120.10617,39.19889],[-120.10498,39.19902],[-120.10453,39.19882],[-120.10431,39.19846],[-120.10435,39.19732],[-120.10465,39.19598],[-120.10445,39.19514],[-120.10418,39.19471],[-120.10499,39.19349],[-120.10514,39.1923],[-120.10496,39.19203]],[[-120.10769,39.2003],[-120.10777,39.20015]],[[-120.10759,39.2006],[-120.10769,39.2003]]]}},{"type":"Feature","properties":{"id":"trail-named-path-Dollar Reservoir","name":"Dollar Reservoir","kind":"trail","policy":"leashed","note":"National-forest trail — the Forest Service asks that dogs be leashed at all times; designated swim beaches are the exception, not trails.","source_url":"https://www.fs.usda.gov/r05/laketahoebasin/recreation/where-can-i-take-my-dog-lake-tahoe","venue":null,"acres":null,"miles":0.0,"approx":false,"osm":null},"geometry":{"type":"MultiLineString","coordinates":[[[-120.1089,39.20093],[-120.10897,39.20051]],[[-120.10845,39.20139],[-120.10855,39.20132]]]}},{"type":"Feature","properties":{"id":"trail-named-path-Dollar Reservoir Trail","name":"Dollar Reservoir Trail","kind":"trail","policy":"leashed","note":"National-forest trail — the Forest Service asks that dogs be leashed at all times; designated swim beaches are the exception, not trails.","source_url":"https://www.fs.usda.gov/r05/laketahoebasin/recreation/where-can-i-take-my-dog-lake-tahoe","venue":null,"acres":null,"miles":0.6,"approx":false,"osm":null},"geometry":{"type":"MultiLineString","coordinates":[[[-120.11621,39.20715],[-120.11619,39.2061],[-120.11573,39.20548],[-120.11533,39.20458],[-120.11507,39.20434],[-120.11491,39.20372],[-120.11355,39.20316],[-120.11314,39.2028],[-120.11142,39.20233],[-120.11076,39.20181],[-120.11002,39.20187],[-120.10845,39.20139]]]}},{"type":"Feature","properties":{"id":"trail-named-path-DollarReservoir Dam Path","name":"DollarReservoir Dam Path","kind":"trail","policy":"leashed","note":"National-forest trail — the Forest Service asks that dogs be leashed at all times; designated swim beaches are the exception, not trails.","source_url":"https://www.fs.usda.gov/r05/laketahoebasin/recreation/where-can-i-take-my-dog-lake-tahoe","venue":null,"acres":null,"miles":0.0,"approx":false,"osm":null},"geometry":{"type":"MultiLineString","coordinates":[[[-120.10855,39.20132],[-120.1089,39.20093]]]}},{"type":"Feature","properties":{"id":"trail-named-path-Eagle Rock Trail","name":"Eagle Rock Trail","kind":"trail","policy":"leashed","note":"National-forest trail — the Forest Service asks that dogs be leashed at all times; designated swim beaches are the exception, not trails.","source_url":"https://www.fs.usda.gov/r05/laketahoebasin/recreation/where-can-i-take-my-dog-lake-tahoe","venue":null,"acres":null,"miles":0.3,"approx":false,"osm":null},"geometry":{"type":"MultiLineString","coordinates":[[[-120.16419,39.10911],[-120.16334,39.11004],[-120.16303,39.11014],[-120.16292,39.11036],[-120.16262,39.11049],[-120.16197,39.11044],[-120.16126,39.11076],[-120.16073,39.11039],[-120.16064,39.11013]]]}},{"type":"Feature","properties":{"id":"trail-named-path-Fast Eddie's","name":"Fast Eddie's","kind":"trail","policy":"leashed","note":"National-forest trail — the Forest Service asks that dogs be leashed at all times; designated swim beaches are the exception, not trails.","source_url":"https://www.fs.usda.gov/r05/laketahoebasin/recreation/where-can-i-take-my-dog-lake-tahoe","venue":null,"acres":null,"miles":0.8,"approx":false,"osm":null},"geometry":{"type":"MultiLineString","coordinates":[[[-120.17851,39.20629],[-120.17849,39.20644],[-120.17785,39.20643],[-120.17732,39.20628],[-120.17715,39.20601],[-120.17718,39.20567],[-120.17678,39.2056],[-120.17666,39.20484],[-120.17611,39.205],[-120.17471,39.20452],[-120.17381,39.20459],[-120.173,39.20441],[-120.17221,39.20361],[-120.17238,39.20354],[-120.17206,39.20301],[-120.17216,39.20283],[-120.17123,39.20202],[-120.17131,39.20182],[-120.17103,39.20138],[-120.17029,39.20094],[-120.17046,39.20056],[-120.16986,39.19987]]]}},{"type":"Feature","properties":{"id":"trail-named-path-Fulton Circle","name":"Fulton Circle","kind":"trail","policy":"leashed","note":"National-forest trail — the Forest Service asks that dogs be leashed at all times; designated swim beaches are the exception, not trails.","source_url":"https://www.fs.usda.gov/r05/laketahoebasin/recreation/where-can-i-take-my-dog-lake-tahoe","venue":null,"acres":null,"miles":0.0,"approx":false,"osm":null},"geometry":{"type":"MultiLineString","coordinates":[[[-120.1046,39.21123],[-120.1044,39.21143]]]}},{"type":"Feature","properties":{"id":"trail-named-path-Fulton Crescent","name":"Fulton Crescent","kind":"trail","policy":"leashed","note":"National-forest trail — the Forest Service asks that dogs be leashed at all times; designated swim beaches are the exception, not trails.","source_url":"https://www.fs.usda.gov/r05/laketahoebasin/recreation/where-can-i-take-my-dog-lake-tahoe","venue":null,"acres":null,"miles":0.1,"approx":false,"osm":null},"geometry":{"type":"MultiLineString","coordinates":[[[-120.10597,39.21095],[-120.1054,39.21114],[-120.1046,39.21123]]]}},{"type":"Feature","properties":{"id":"trail-named-path-High Voltage","name":"High Voltage","kind":"trail","policy":"leashed","note":"National-forest trail — the Forest Service asks that dogs be leashed at all times; designated swim beaches are the exception, not trails.","source_url":"https://www.fs.usda.gov/r05/laketahoebasin/recreation/where-can-i-take-my-dog-lake-tahoe","venue":null,"acres":null,"miles":0.1,"approx":false,"osm":null},"geometry":{"type":"MultiLineString","coordinates":[[[-120.11689,39.19842],[-120.11741,39.19785],[-120.1174,39.19756]]]}},{"type":"Feature","properties":{"id":"trail-named-path-Jackpine/Old State Park Road Connector","name":"Jackpine/Old State Park Road Connector","kind":"trail","policy":"leashed","note":"National-forest trail — the Forest Service asks that dogs be leashed at all times; designated swim beaches are the exception, not trails.","source_url":"https://www.fs.usda.gov/r05/laketahoebasin/recreation/where-can-i-take-my-dog-lake-tahoe","venue":null,"acres":null,"miles":0.3,"approx":false,"osm":null},"geometry":{"type":"MultiLineString","coordinates":[[[-120.1435,39.18203],[-120.14292,39.18155],[-120.14213,39.18026],[-120.14143,39.17956],[-120.14058,39.1778],[-120.14034,39.17766]]]}},{"type":"Feature","properties":{"id":"trail-named-path-Kaspian Rim Trail","name":"Kaspian Rim Trail","kind":"trail","policy":"leashed","note":"National-forest trail — the Forest Service asks that dogs be leashed at all times; designated swim beaches are the exception, not trails.","source_url":"https://www.fs.usda.gov/r05/laketahoebasin/recreation/where-can-i-take-my-dog-lake-tahoe","venue":null,"acres":null,"miles":1.7,"approx":false,"osm":null},"geometry":{"type":"MultiLineString","coordinates":[[[-120.18475,39.12131],[-120.18436,39.1209],[-120.18415,39.12099],[-120.18399,39.12081],[-120.1837,39.1209],[-120.18329,39.12125],[-120.18282,39.1212],[-120.18233,39.12063],[-120.18196,39.12042],[-120.18115,39.1202],[-120.18092,39.12024],[-120.18077,39.11991],[-120.18038,39.12007],[-120.18033,39.11968],[-120.18004,39.11976],[-120.17999,39.11967],[-120.1801,39.11943],[-120.1804,39.11929],[-120.18033,39.11924],[-120.17983,39.11936],[-120.17953,39.11988],[-120.1795,39.11934],[-120.17977,39.11894],[-120.17917,39.11918],[-120.17851,39.11973],[-120.17828,39.11933],[-120.17786,39.11933],[-120.17779,39.11909],[-120.17717,39.1192],[-120.17658,39.11966],[-120.17608,39.11971],[-120.17461,39.11923],[-120.17285,39.11932],[-120.17135,39.11892],[-120.17046,39.1188],[-120.17007,39.11853],[-120.16969,39.11789],[-120.16953,39.1179],[-120.16942,39.11809]],[[-120.1722,39.12092],[-120.17281,39.12112],[-120.17364,39.12191],[-120.1741,39.12204],[-120.17337,39.1212],[-120.17346,39.12114],[-120.17395,39.12135],[-120.17392,39.12097],[-120.17331,39.11995],[-120.17406,39.12003],[-120.17418,39.11995],[-120.17285,39.11932]]]}},{"type":"Feature","properties":{"id":"trail-named-path-Lakeview Ridge Trail","name":"Lakeview Ridge Trail","kind":"trail","policy":"leashed","note":"National-forest trail — the Forest Service asks that dogs be leashed at all times; designated swim beaches are the exception, not trails.","source_url":"https://www.fs.usda.gov/r05/laketahoebasin/recreation/where-can-i-take-my-dog-lake-tahoe","venue":null,"acres":null,"miles":0.8,"approx":false,"osm":null},"geometry":{"type":"MultiLineString","coordinates":[[[-120.12729,39.21302],[-120.12716,39.21297],[-120.12735,39.21275],[-120.12706,39.21264],[-120.12742,39.21244],[-120.12719,39.21233],[-120.12739,39.21216],[-120.12705,39.21207],[-120.12746,39.21191],[-120.12675,39.21171],[-120.12694,39.21137],[-120.12664,39.21127],[-120.1271,39.21102],[-120.12676,39.21071],[-120.12712,39.21053],[-120.12696,39.2102],[-120.12663,39.21016],[-120.12653,39.20998],[-120.12647,39.20944],[-120.12662,39.20903],[-120.12641,39.20861],[-120.12669,39.20843],[-120.12602,39.20804],[-120.1257,39.2082],[-120.12595,39.20879],[-120.12573,39.20916],[-120.12576,39.20987],[-120.12554,39.2101],[-120.12543,39.20876],[-120.12529,39.20855]]]}},{"type":"Feature","properties":{"id":"trail-named-path-Lower Missing Link","name":"Lower Missing Link","kind":"trail","policy":"leashed","note":"National-forest trail — the Forest Service asks that dogs be leashed at all times; designated swim beaches are the exception, not trails.","source_url":"https://www.fs.usda.gov/r05/laketahoebasin/recreation/where-can-i-take-my-dog-lake-tahoe","venue":null,"acres":null,"miles":0.9,"approx":false,"osm":null},"geometry":{"type":"MultiLineString","coordinates":[[[-120.18384,39.20524],[-120.18382,39.20461],[-120.18309,39.20345],[-120.18314,39.20321],[-120.18344,39.2034],[-120.18348,39.20322],[-120.1831,39.2027],[-120.1841,39.2017],[-120.184,39.2016],[-120.18471,39.20153],[-120.18496,39.20116],[-120.1852,39.20116],[-120.1855,39.20134],[-120.18585,39.20106],[-120.18607,39.20115],[-120.18615,39.20144],[-120.18624,39.20106],[-120.18608,39.20058],[-120.18579,39.20041],[-120.18617,39.20007],[-120.18705,39.20098],[-120.18728,39.20163],[-120.18758,39.20181],[-120.18773,39.20181],[-120.1879,39.20159],[-120.18799,39.20089],[-120.18873,39.20054]]]}},{"type":"Feature","properties":{"id":"trail-named-path-Lower Rocky Ridge Connector","name":"Lower Rocky Ridge Connector","kind":"trail","policy":"leashed","note":"National-forest trail — the Forest Service asks that dogs be leashed at all times; designated swim beaches are the exception, not trails.","source_url":"https://www.fs.usda.gov/r05/laketahoebasin/recreation/where-can-i-take-my-dog-lake-tahoe","venue":null,"acres":null,"miles":0.0,"approx":false,"osm":null},"geometry":{"type":"MultiLineString","coordinates":[[[-120.13345,39.18015],[-120.1331,39.18019],[-120.13287,39.1804]]]}},{"type":"Feature","properties":{"id":"trail-named-path-OTB Trail","name":"OTB Trail","kind":"trail","policy":"leashed","note":"National-forest trail — the Forest Service asks that dogs be leashed at all times; designated swim beaches are the exception, not trails.","source_url":"https://www.fs.usda.gov/r05/laketahoebasin/recreation/where-can-i-take-my-dog-lake-tahoe","venue":null,"acres":null,"miles":1.7,"approx":false,"osm":null},"geometry":{"type":"MultiLineString","coordinates":[[[-120.16225,39.21912],[-120.16279,39.22047],[-120.16275,39.22167],[-120.16299,39.22292],[-120.16217,39.2228],[-120.16235,39.22209],[-120.16153,39.2213],[-120.16162,39.22186],[-120.16132,39.22203],[-120.16092,39.22264],[-120.16092,39.22325],[-120.16136,39.22371],[-120.16275,39.22413],[-120.16228,39.22421],[-120.16156,39.22397],[-120.16109,39.22401],[-120.16067,39.22422],[-120.16137,39.22423],[-120.16248,39.22491],[-120.16354,39.22486],[-120.16431,39.22512],[-120.16443,39.22563],[-120.16406,39.22649],[-120.1642,39.22662],[-120.16413,39.22687],[-120.16536,39.22641],[-120.1647,39.22707],[-120.16472,39.22756],[-120.16435,39.22768],[-120.16344,39.22756],[-120.16231,39.22667],[-120.1624,39.22721],[-120.16284,39.22777],[-120.1623,39.22763],[-120.16213,39.22771],[-120.16247,39.228],[-120.16288,39.22807]]]}},{"type":"Feature","properties":{"id":"trail-named-path-Ocelot/Stumpy Connector","name":"Ocelot/Stumpy Connector","kind":"trail","policy":"leashed","note":"National-forest trail — the Forest Service asks that dogs be leashed at all times; designated swim beaches are the exception, not trails.","source_url":"https://www.fs.usda.gov/r05/laketahoebasin/recreation/where-can-i-take-my-dog-lake-tahoe","venue":null,"acres":null,"miles":0.2,"approx":false,"osm":null},"geometry":{"type":"MultiLineString","coordinates":[[[-120.16321,39.19459],[-120.16297,39.19443],[-120.16291,39.19413],[-120.16259,39.19381],[-120.16187,39.19352],[-120.16116,39.19248]],[[-120.16092,39.19189],[-120.16116,39.19248]]]}},{"type":"Feature","properties":{"id":"trail-named-path-Old County","name":"Old County","kind":"trail","policy":"leashed","note":"National-forest trail — the Forest Service asks that dogs be leashed at all times; designated swim beaches are the exception, not trails.","source_url":"https://www.fs.usda.gov/r05/laketahoebasin/recreation/where-can-i-take-my-dog-lake-tahoe","venue":null,"acres":null,"miles":0.2,"approx":false,"osm":null},"geometry":{"type":"MultiLineString","coordinates":[[[-120.1046,39.21123],[-120.10449,39.20919],[-120.10429,39.20851],[-120.10391,39.20826]]]}},{"type":"Feature","properties":{"id":"trail-named-path-Olympic Valley-Western States Connector","name":"Olympic Valley-Western States Connector","kind":"trail","policy":"leashed","note":"National-forest trail — the Forest Service asks that dogs be leashed at all times; designated swim beaches are the exception, not trails.","source_url":"https://www.fs.usda.gov/r05/laketahoebasin/recreation/where-can-i-take-my-dog-lake-tahoe","venue":null,"acres":null,"miles":0.7,"approx":false,"osm":null},"geometry":{"type":"MultiLineString","coordinates":[[[-120.2048,39.20094],[-120.20467,39.20116],[-120.20525,39.20118],[-120.20533,39.20129],[-120.20474,39.20149],[-120.204,39.2014],[-120.20467,39.20194],[-120.20465,39.20221],[-120.20513,39.2024],[-120.20619,39.2025],[-120.2054,39.2027],[-120.20412,39.20276],[-120.20269,39.20239],[-120.20388,39.20316],[-120.20281,39.20317],[-120.20358,39.20388]]]}},{"type":"Feature","properties":{"id":"trail-named-path-Painted Bear","name":"Painted Bear","kind":"trail","policy":"leashed","note":"National-forest trail — the Forest Service asks that dogs be leashed at all times; designated swim beaches are the exception, not trails.","source_url":"https://www.fs.usda.gov/r05/laketahoebasin/recreation/where-can-i-take-my-dog-lake-tahoe","venue":null,"acres":null,"miles":1.1,"approx":false,"osm":null},"geometry":{"type":"MultiLineString","coordinates":[[[-120.17148,39.21433],[-120.17155,39.21396],[-120.17058,39.21357],[-120.16975,39.21301],[-120.16979,39.21287],[-120.17108,39.21212],[-120.17108,39.21176],[-120.17078,39.21155],[-120.16956,39.21125],[-120.16872,39.21084],[-120.16808,39.21069],[-120.1678,39.21024],[-120.16733,39.20991],[-120.16749,39.20979],[-120.16892,39.20957],[-120.16812,39.20903],[-120.16764,39.20898],[-120.16801,39.20886],[-120.16864,39.20887],[-120.16851,39.20867],[-120.16894,39.20879],[-120.16957,39.20832],[-120.16973,39.2079],[-120.16952,39.20791],[-120.16973,39.20707],[-120.16964,39.20663],[-120.17053,39.20609],[-120.1704,39.20526]]]}},{"type":"Feature","properties":{"id":"trail-named-path-Powerline","name":"Powerline","kind":"trail","policy":"leashed","note":"National-forest trail — the Forest Service asks that dogs be leashed at all times; designated swim beaches are the exception, not trails.","source_url":"https://www.fs.usda.gov/r05/laketahoebasin/recreation/where-can-i-take-my-dog-lake-tahoe","venue":null,"acres":null,"miles":1.0,"approx":false,"osm":null},"geometry":{"type":"MultiLineString","coordinates":[[[-120.1659,39.19373],[-120.167,39.19354],[-120.16803,39.19307],[-120.16992,39.19249],[-120.17028,39.19248],[-120.17298,39.19301],[-120.17402,39.19369],[-120.17501,39.19471],[-120.17573,39.19525],[-120.17622,39.19556],[-120.17703,39.19583],[-120.17842,39.19604],[-120.17902,39.19597],[-120.17939,39.19612],[-120.17937,39.19578],[-120.17955,39.19549],[-120.18041,39.1952],[-120.18092,39.19524]]]}},{"type":"Feature","properties":{"id":"trail-named-path-Reservoir Run","name":"Reservoir Run","kind":"trail","policy":"leashed","note":"National-forest trail — the Forest Service asks that dogs be leashed at all times; designated swim beaches are the exception, not trails.","source_url":"https://www.fs.usda.gov/r05/laketahoebasin/recreation/where-can-i-take-my-dog-lake-tahoe","venue":null,"acres":null,"miles":0.0,"approx":false,"osm":null},"geometry":{"type":"MultiLineString","coordinates":[[[-120.10619,39.21043],[-120.10597,39.21095]]]}},{"type":"Feature","properties":{"id":"trail-named-path-S.S. Wallternate","name":"S.S. Wallternate","kind":"trail","policy":"leashed","note":"National-forest trail — the Forest Service asks that dogs be leashed at all times; designated swim beaches are the exception, not trails.","source_url":"https://www.fs.usda.gov/r05/laketahoebasin/recreation/where-can-i-take-my-dog-lake-tahoe","venue":null,"acres":null,"miles":1.1,"approx":false,"osm":null},"geometry":{"type":"MultiLineString","coordinates":[[[-120.19009,39.20353],[-120.18974,39.20443],[-120.18912,39.20425],[-120.18877,39.20388],[-120.18809,39.20385],[-120.18762,39.20369],[-120.18693,39.20374],[-120.18652,39.20324],[-120.18579,39.20298],[-120.1856,39.20262],[-120.18515,39.20332],[-120.18495,39.20321],[-120.18496,39.20284],[-120.18474,39.2026],[-120.184,39.20256],[-120.18377,39.2028],[-120.18413,39.2031],[-120.18424,39.20383],[-120.18476,39.20432],[-120.18484,39.20459],[-120.18508,39.20466],[-120.18497,39.20479],[-120.18517,39.20484],[-120.18486,39.2051],[-120.18448,39.20502],[-120.18427,39.20482],[-120.18426,39.20558],[-120.18354,39.20495],[-120.18358,39.20574],[-120.18292,39.20538],[-120.18252,39.20635],[-120.18139,39.2066]]]}},{"type":"Feature","properties":{"id":"trail-named-path-Sawmill Flat A Spur","name":"Sawmill Flat A Spur","kind":"trail","policy":"leashed","note":"National-forest trail — the Forest Service asks that dogs be leashed at all times; designated swim beaches are the exception, not trails.","source_url":"https://www.fs.usda.gov/r05/laketahoebasin/recreation/where-can-i-take-my-dog-lake-tahoe","venue":null,"acres":null,"miles":0.2,"approx":false,"osm":null},"geometry":{"type":"MultiLineString","coordinates":[[[-120.10773,39.2152],[-120.10911,39.21346],[-120.10979,39.21324],[-120.11064,39.21317]]]}},{"type":"Feature","properties":{"id":"trail-named-path-Scott Peak Road","name":"Scott Peak Road","kind":"trail","policy":"leashed","note":"National-forest trail — the Forest Service asks that dogs be leashed at all times; designated swim beaches are the exception, not trails.","source_url":"https://www.fs.usda.gov/r05/laketahoebasin/recreation/where-can-i-take-my-dog-lake-tahoe","venue":null,"acres":null,"miles":2.0,"approx":false,"osm":null},"geometry":{"type":"MultiLineString","coordinates":[[[-120.20248,39.16927],[-120.20268,39.16944],[-120.20255,39.17044],[-120.20288,39.17111],[-120.20467,39.17281],[-120.20626,39.17402],[-120.20656,39.17404],[-120.20655,39.17356],[-120.20603,39.17275],[-120.20593,39.17233],[-120.2059,39.17168],[-120.20611,39.17113],[-120.20741,39.1709],[-120.20779,39.1707],[-120.20823,39.17019],[-120.20865,39.16909],[-120.20923,39.16844],[-120.21116,39.16758],[-120.21327,39.16681],[-120.21369,39.16643],[-120.21438,39.16525],[-120.21388,39.16364],[-120.21307,39.16259],[-120.21189,39.16202],[-120.21179,39.1617]],[[-120.21179,39.1617],[-120.21532,39.15879],[-120.2164,39.15737]]]}},{"type":"Feature","properties":{"id":"trail-named-path-Scott Peak Trail","name":"Scott Peak Trail","kind":"trail","policy":"leashed","note":"National-forest trail — the Forest Service asks that dogs be leashed at all times; designated swim beaches are the exception, not trails.","source_url":"https://www.fs.usda.gov/r05/laketahoebasin/recreation/where-can-i-take-my-dog-lake-tahoe","venue":null,"acres":null,"miles":0.8,"approx":false,"osm":null},"geometry":{"type":"MultiLineString","coordinates":[[[-120.21179,39.1617],[-120.21379,39.16112],[-120.21546,39.16038],[-120.21603,39.15992],[-120.21667,39.15962],[-120.2178,39.15858],[-120.21842,39.15845],[-120.21902,39.15865],[-120.21902,39.15889],[-120.21872,39.1592],[-120.21884,39.15933],[-120.21982,39.15881],[-120.2207,39.15866],[-120.22192,39.15822],[-120.22238,39.1582],[-120.22263,39.15791],[-120.22249,39.15705]]]}},{"type":"Feature","properties":{"id":"trail-named-path-Shale Trail","name":"Shale Trail","kind":"trail","policy":"leashed","note":"National-forest trail — the Forest Service asks that dogs be leashed at all times; designated swim beaches are the exception, not trails.","source_url":"https://www.fs.usda.gov/r05/laketahoebasin/recreation/where-can-i-take-my-dog-lake-tahoe","venue":null,"acres":null,"miles":0.5,"approx":false,"osm":null},"geometry":{"type":"MultiLineString","coordinates":[[[-120.10616,39.2125],[-120.1066,39.2125],[-120.10828,39.21299],[-120.10974,39.21244],[-120.11017,39.21253],[-120.11054,39.21281],[-120.11064,39.21317],[-120.11199,39.21374],[-120.11288,39.21444],[-120.1129,39.21488],[-120.11319,39.2153],[-120.11322,39.2157]]]}},{"type":"Feature","properties":{"id":"trail-named-path-Stanford Rock Trail","name":"Stanford Rock Trail","kind":"trail","policy":"leashed","note":"National-forest trail — the Forest Service asks that dogs be leashed at all times; designated swim beaches are the exception, not trails.","source_url":"https://www.fs.usda.gov/r05/laketahoebasin/recreation/where-can-i-take-my-dog-lake-tahoe","venue":null,"acres":null,"miles":4.7,"approx":false,"osm":null},"geometry":{"type":"MultiLineString","coordinates":[[[-120.17865,39.13474],[-120.17969,39.13504],[-120.18006,39.13526],[-120.18068,39.13619],[-120.18038,39.1365]],[[-120.19822,39.12509],[-120.19793,39.12543],[-120.19776,39.12544],[-120.19764,39.12506],[-120.19771,39.12453],[-120.19716,39.12511],[-120.19581,39.12553],[-120.19587,39.12527],[-120.19547,39.12529],[-120.19513,39.12515],[-120.19563,39.12479],[-120.19566,39.12464],[-120.19519,39.12456],[-120.19455,39.12469],[-120.19427,39.1246],[-120.19459,39.12409],[-120.19558,39.12373],[-120.19506,39.1235],[-120.19584,39.12317],[-120.19594,39.12288],[-120.19518,39.12296],[-120.19413,39.1226],[-120.19345,39.12257],[-120.19359,39.1223],[-120.19315,39.1223],[-120.19342,39.122],[-120.19314,39.12146],[-120.19365,39.12163],[-120.19338,39.12136]],[[-120.19338,39.12136],[-120.19315,39.1211],[-120.19282,39.12105],[-120.19165,39.12141],[-120.19114,39.12191],[-120.19051,39.12201],[-120.18887,39.12144],[-120.18796,39.12093]],[[-120.18796,39.12093],[-120.18788,39.12079],[-120.18814,39.12061],[-120.18718,39.12025],[-120.18656,39.12027],[-120.18615,39.12042],[-120.18613,39.12021],[-120.18566,39.12026],[-120.18505,39.12052],[-120.18471,39.12116],[-120.18485,39.12142],[-120.18479,39.1216],[-120.18442,39.12175],[-120.18436,39.12189],[-120.18555,39.12285]],[[-120.17261,39.13334],[-120.17442,39.13311],[-120.17531,39.13316],[-120.17695,39.13358],[-120.1785,39.13377],[-120.17964,39.13404],[-120.18128,39.13418]],[[-120.17302,39.13287],[-120.17367,39.13269]],[[-120.17253,39.13295],[-120.17299,39.13311],[-120.17302,39.13287]],[[-120.17971,39.13464],[-120.17901,39.13453],[-120.17873,39.1346],[-120.17865,39.13474]],[[-120.17971,39.13464],[-120.18128,39.13418]],[[-120.17253,39.13295],[-120.17261,39.13334]],[[-120.18555,39.12285],[-120.18558,39.12318]],[[-120.17925,39.13054],[-120.1795,39.13054]],[[-120.17367,39.13269],[-120.17375,39.1326],[-120.17351,39.13259],[-120.17401,39.13226],[-120.17377,39.13199],[-120.17393,39.1317],[-120.17374,39.13111],[-120.17419,39.13138],[-120.17397,39.13077],[-120.17405,39.13044],[-120.17679,39.12995],[-120.1766,39.13067],[-120.17804,39.12997],[-120.17776,39.13044],[-120.17834,39.13084],[-120.17846,39.13082],[-120.17843,39.13059],[-120.17877,39.13076],[-120.17911,39.13037],[-120.17925,39.13054]],[[-120.1795,39.13054],[-120.18023,39.13025],[-120.18065,39.13071],[-120.18143,39.13079],[-120.1813,39.13059],[-120.18143,39.13037],[-120.18194,39.13069],[-120.18189,39.13035],[-120.18211,39.13046],[-120.18213,39.12995],[-120.18242,39.13044],[-120.18256,39.13048],[-120.18249,39.13025],[-120.18282,39.13045],[-120.18276,39.13012],[-120.18333,39.12918],[-120.18376,39.1301],[-120.18408,39.12992],[-120.18419,39.12956],[-120.18457,39.1298],[-120.18496,39.12979],[-120.18486,39.12922],[-120.18518,39.12873],[-120.18559,39.12915],[-120.18707,39.12929],[-120.18633,39.12884],[-120.18583,39.1278],[-120.1859,39.12773],[-120.18652,39.12814],[-120.18643,39.1275],[-120.18608,39.12705],[-120.18593,39.12628],[-120.18607,39.1252],[-120.18643,39.12546],[-120.18644,39.12494],[-120.18612,39.1245],[-120.1861,39.12421],[-120.18558,39.12318]]]}},{"type":"Feature","properties":{"id":"trail-named-path-Stumpy Connector","name":"Stumpy Connector","kind":"trail","policy":"leashed","note":"National-forest trail — the Forest Service asks that dogs be leashed at all times; designated swim beaches are the exception, not trails.","source_url":"https://www.fs.usda.gov/r05/laketahoebasin/recreation/where-can-i-take-my-dog-lake-tahoe","venue":null,"acres":null,"miles":0.2,"approx":false,"osm":null},"geometry":{"type":"MultiLineString","coordinates":[[[-120.16321,39.19459],[-120.16348,39.19456],[-120.16377,39.19424],[-120.1642,39.19402],[-120.1652,39.19413],[-120.1659,39.19373]]]}},{"type":"Feature","properties":{"id":"trail-named-path-Stumpy Super G","name":"Stumpy Super G","kind":"trail","policy":"leashed","note":"National-forest trail — the Forest Service asks that dogs be leashed at all times; designated swim beaches are the exception, not trails.","source_url":"https://www.fs.usda.gov/r05/laketahoebasin/recreation/where-can-i-take-my-dog-lake-tahoe","venue":null,"acres":null,"miles":0.8,"approx":false,"osm":null},"geometry":{"type":"MultiLineString","coordinates":[[[-120.16321,39.19459],[-120.16314,39.19489],[-120.16274,39.19543],[-120.16183,39.19606],[-120.1614,39.1962],[-120.162,39.1967],[-120.16192,39.19771],[-120.16206,39.19783],[-120.16222,39.19779],[-120.16334,39.1971],[-120.16384,39.19704],[-120.1645,39.19677],[-120.16504,39.19688],[-120.16557,39.19678],[-120.16462,39.19802],[-120.16469,39.19837],[-120.16458,39.19861],[-120.16475,39.19923],[-120.16504,39.1994],[-120.16549,39.19925],[-120.16631,39.19941],[-120.16648,39.19965]]]}},{"type":"Feature","properties":{"id":"trail-named-path-Sugar Pine/ Stanford Rock Connector","name":"Sugar Pine/ Stanford Rock Connector","kind":"trail","policy":"leashed","note":"National-forest trail — the Forest Service asks that dogs be leashed at all times; designated swim beaches are the exception, not trails.","source_url":"https://www.fs.usda.gov/r05/laketahoebasin/recreation/where-can-i-take-my-dog-lake-tahoe","venue":null,"acres":null,"miles":0.6,"approx":false,"osm":null},"geometry":{"type":"MultiLineString","coordinates":[[[-120.16956,39.12871],[-120.16979,39.12885],[-120.17002,39.12977],[-120.17093,39.12898],[-120.17081,39.12992],[-120.17092,39.13005],[-120.17151,39.13],[-120.17175,39.13043],[-120.17157,39.13087],[-120.17162,39.13232],[-120.17149,39.13298],[-120.17169,39.13335],[-120.17209,39.13358],[-120.17313,39.13334]]]}},{"type":"Feature","properties":{"id":"trail-named-path-Tahoe Rim Trail","name":"Tahoe Rim Trail","kind":"trail","policy":"leashed","note":"National-forest trail — the Forest Service asks that dogs be leashed at all times; designated swim beaches are the exception, not trails.","source_url":"https://www.fs.usda.gov/r05/laketahoebasin/recreation/where-can-i-take-my-dog-lake-tahoe","venue":null,"acres":null,"miles":9.5,"approx":false,"osm":null},"geometry":{"type":"MultiLineString","coordinates":[[[-120.17123,39.15269],[-120.17008,39.15295],[-120.1679,39.1532],[-120.16586,39.15373],[-120.16312,39.15516],[-120.16107,39.15583],[-120.16019,39.15626],[-120.15855,39.1574],[-120.15812,39.15812],[-120.15761,39.15818],[-120.15653,39.15861],[-120.15558,39.1593],[-120.15546,39.15927],[-120.15548,39.15847],[-120.15538,39.15841],[-120.15432,39.15945],[-120.15412,39.16013],[-120.15386,39.16041],[-120.15454,39.16082],[-120.15292,39.16108],[-120.15406,39.16154],[-120.1545,39.16183],[-120.15246,39.16199],[-120.15227,39.1621]],[[-120.15227,39.1621],[-120.15115,39.16219],[-120.14979,39.16206],[-120.14943,39.16217],[-120.14879,39.16261],[-120.14844,39.16313]],[[-120.1338,39.21317],[-120.1348,39.21306],[-120.13598,39.21322],[-120.13727,39.21311],[-120.13839,39.21322],[-120.13991,39.21306],[-120.14133,39.21323],[-120.14239,39.21351],[-120.14462,39.21443],[-120.14703,39.21498],[-120.14825,39.2154],[-120.15001,39.21529],[-120.15239,39.21465],[-120.15299,39.21458],[-120.15509,39.215],[-120.15684,39.21497],[-120.15782,39.21474],[-120.1587,39.21429]],[[-120.18874,39.14111],[-120.18908,39.14094],[-120.19165,39.14047]],[[-120.16442,39.21465],[-120.16388,39.21505],[-120.16328,39.21526],[-120.16227,39.21542],[-120.16072,39.21538],[-120.16028,39.21515],[-120.15964,39.21348],[-120.15941,39.21336],[-120.15895,39.21478]],[[-120.18331,39.15402],[-120.18241,39.15396],[-120.18105,39.15344],[-120.1807,39.15344],[-120.17924,39.15299],[-120.17847,39.15308],[-120.17801,39.15337],[-120.17687,39.15344],[-120.17389,39.15257],[-120.17325,39.15282],[-120.17142,39.1528],[-120.17123,39.15269]],[[-120.18475,39.18746],[-120.18589,39.18809],[-120.18563,39.18844],[-120.18488,39.18895],[-120.18443,39.1898],[-120.1846,39.19321],[-120.18366,39.19406],[-120.18248,39.19411],[-120.18142,39.19461],[-120.18098,39.19509],[-120.18091,39.19543],[-120.18112,39.19555],[-120.18109,39.19581],[-120.18063,39.19638],[-120.18024,39.19752],[-120.18031,39.19902],[-120.18075,39.20026],[-120.18053,39.20043],[-120.1798,39.20045],[-120.17928,39.20132],[-120.17884,39.20174],[-120.17898,39.20308],[-120.1792,39.20352],[-120.17902,39.20506],[-120.17954,39.20678]],[[-120.19278,39.15476],[-120.19338,39.15425],[-120.19279,39.15328],[-120.19237,39.15295],[-120.19259,39.15231],[-120.19234,39.15129],[-120.19304,39.15039],[-120.19421,39.15],[-120.19497,39.14947],[-120.19528,39.149],[-120.19515,39.14848]],[[-120.19515,39.14848],[-120.19289,39.14688],[-120.19207,39.14612],[-120.19149,39.14585],[-120.19127,39.14557],[-120.19131,39.1451],[-120.19084,39.14461]],[[-120.13904,39.22807],[-120.13926,39.22755],[-120.13857,39.22654],[-120.13787,39.22615],[-120.13775,39.22592],[-120.13699,39.22577],[-120.13637,39.22508],[-120.13627,39.22479],[-120.13643,39.22453],[-120.13642,39.22412],[-120.13605,39.22371]],[[-120.13114,39.2194],[-120.13096,39.21932],[-120.12984,39.21935],[-120.12929,39.21952],[-120.1296,39.21901],[-120.13061,39.21857],[-120.13018,39.2185],[-120.1297,39.21822],[-120.12916,39.21772],[-120.12816,39.21753],[-120.12785,39.21761],[-120.12771,39.21732],[-120.12727,39.21742],[-120.12697,39.21722],[-120.12707,39.21697],[-120.12686,39.21684],[-120.1267,39.2164],[-120.12577,39.21634],[-120.1258,39.21623],[-120.12635,39.21605],[-120.12675,39.21615],[-120.12873,39.21617],[-120.12979,39.21594],[-120.13011,39.21597],[-120.13026,39.21586]],[[-120.1338,39.21317],[-120.13213,39.21364],[-120.13083,39.21427],[-120.13026,39.21586]],[[-120.19278,39.15476],[-120.19203,39.15467],[-120.19149,39.15441]],[[-120.18989,39.15429],[-120.18846,39.15442],[-120.18731,39.15416],[-120.18593,39.15454],[-120.18331,39.15402]],[[-120.19149,39.15441],[-120.19027,39.15447],[-120.18989,39.15429]],[[-120.12985,39.22032],[-120.13114,39.2194]],[[-120.16997,39.2145],[-120.16841,39.21514],[-120.16804,39.21505],[-120.16797,39.2146],[-120.16746,39.21413],[-120.1669,39.21415],[-120.16561,39.2146],[-120.16473,39.21453],[-120.16442,39.21465]]]}},{"type":"Feature","properties":{"id":"trail-named-path-Tahoe Rim Trail (Alternate)","name":"Tahoe Rim Trail (Alternate)","kind":"trail","policy":"leashed","note":"National-forest trail — the Forest Service asks that dogs be leashed at all times; designated swim beaches are the exception, not trails.","source_url":"https://www.fs.usda.gov/r05/laketahoebasin/recreation/where-can-i-take-my-dog-lake-tahoe","venue":null,"acres":null,"miles":0.4,"approx":false,"osm":null},"geometry":{"type":"MultiLineString","coordinates":[[[-120.18129,39.20881],[-120.18134,39.20916],[-120.18154,39.20927],[-120.18147,39.20937],[-120.18103,39.20947],[-120.18026,39.20943],[-120.18006,39.20962],[-120.18088,39.2106],[-120.1802,39.21067],[-120.17995,39.21088],[-120.1799,39.21116],[-120.18028,39.21128],[-120.18002,39.21148],[-120.18023,39.21165],[-120.18022,39.21189],[-120.17953,39.21237]]]}},{"type":"Feature","properties":{"id":"trail-named-path-Tahoe Rim Trail (Glass Mountain)","name":"Tahoe Rim Trail (Glass Mountain)","kind":"trail","policy":"leashed","note":"National-forest trail — the Forest Service asks that dogs be leashed at all times; designated swim beaches are the exception, not trails.","source_url":"https://www.fs.usda.gov/r05/laketahoebasin/recreation/where-can-i-take-my-dog-lake-tahoe","venue":null,"acres":null,"miles":4.8,"approx":false,"osm":null},"geometry":{"type":"MultiLineString","coordinates":[[[-120.15542,39.16901],[-120.15488,39.16919],[-120.15395,39.16893],[-120.15345,39.16925],[-120.15234,39.16964],[-120.15125,39.1708],[-120.1512,39.17137],[-120.15055,39.17179],[-120.15015,39.17242],[-120.14975,39.1716],[-120.14978,39.17106],[-120.1493,39.17026],[-120.14953,39.16937],[-120.14926,39.16931],[-120.14912,39.16911],[-120.14893,39.16931],[-120.14884,39.16913]],[[-120.18643,39.18099],[-120.18631,39.17951],[-120.18562,39.17827],[-120.18566,39.17722],[-120.18532,39.1768],[-120.18466,39.17654],[-120.18434,39.17506],[-120.18378,39.17438],[-120.18391,39.1735],[-120.1838,39.17328],[-120.18299,39.17341],[-120.18193,39.17437],[-120.18072,39.17473],[-120.17981,39.17476],[-120.17917,39.17419],[-120.17931,39.17369],[-120.17892,39.17333],[-120.17893,39.17298],[-120.1786,39.1726],[-120.17848,39.17222],[-120.17636,39.17062],[-120.17526,39.16944],[-120.17486,39.16927],[-120.17456,39.16878],[-120.17394,39.16855],[-120.17269,39.16839],[-120.17246,39.16817],[-120.17163,39.16807],[-120.17108,39.16826],[-120.16985,39.16836],[-120.16852,39.16881],[-120.16793,39.16849],[-120.16783,39.16857],[-120.16788,39.16878],[-120.16767,39.16896],[-120.16678,39.16936],[-120.16636,39.16938],[-120.16558,39.16921],[-120.16525,39.1688],[-120.16515,39.1683],[-120.16453,39.1684],[-120.16311,39.16798],[-120.16267,39.16804],[-120.1622,39.16789],[-120.16173,39.16794],[-120.16135,39.16784],[-120.16114,39.16755],[-120.15944,39.16773],[-120.15814,39.16838],[-120.15784,39.1689],[-120.15769,39.16825],[-120.15776,39.16732],[-120.15714,39.16729],[-120.15687,39.16742],[-120.15645,39.16724],[-120.15569,39.16766],[-120.15548,39.16789],[-120.15549,39.16822],[-120.15579,39.16863],[-120.15542,39.16901]],[[-120.18111,39.1831],[-120.18039,39.18504],[-120.17997,39.18523],[-120.17978,39.18568],[-120.17992,39.18583],[-120.18053,39.18573],[-120.18161,39.1848],[-120.18136,39.18564],[-120.18167,39.18738],[-120.18143,39.18763],[-120.18082,39.18784],[-120.18062,39.18802],[-120.18274,39.18843],[-120.18291,39.18824],[-120.18278,39.18745],[-120.18316,39.18702],[-120.18377,39.18667],[-120.18406,39.18674],[-120.18475,39.18746]],[[-120.18643,39.18099],[-120.18566,39.18066],[-120.18548,39.18069],[-120.18521,39.18105],[-120.18547,39.18186],[-120.18408,39.18187],[-120.18308,39.18204],[-120.182,39.18242],[-120.18111,39.1831]]]}},{"type":"Feature","properties":{"id":"trail-named-path-Tahoe Rim Trail (Painted Rock North)","name":"Tahoe Rim Trail (Painted Rock North)","kind":"trail","policy":"leashed","note":"National-forest trail — the Forest Service asks that dogs be leashed at all times; designated swim beaches are the exception, not trails.","source_url":"https://www.fs.usda.gov/r05/laketahoebasin/recreation/where-can-i-take-my-dog-lake-tahoe","venue":null,"acres":null,"miles":1.1,"approx":false,"osm":null},"geometry":{"type":"MultiLineString","coordinates":[[[-120.17459,39.21357],[-120.17454,39.21389],[-120.1757,39.21368],[-120.17677,39.21402],[-120.17746,39.21455],[-120.17727,39.21541],[-120.17665,39.21576],[-120.17761,39.21657],[-120.17763,39.21679],[-120.17748,39.21694],[-120.17691,39.21685],[-120.17678,39.21695],[-120.1775,39.21809],[-120.17735,39.21834],[-120.17716,39.21827],[-120.17575,39.21684],[-120.17512,39.21532],[-120.17329,39.2151],[-120.17207,39.21458],[-120.17169,39.21457],[-120.17141,39.21431],[-120.17092,39.21431],[-120.17045,39.21411],[-120.16997,39.2145]]]}},{"type":"Feature","properties":{"id":"trail-named-path-Tahoe Rim Trail (Painted Rock South)","name":"Tahoe Rim Trail (Painted Rock South)","kind":"trail","policy":"leashed","note":"National-forest trail — the Forest Service asks that dogs be leashed at all times; designated swim beaches are the exception, not trails.","source_url":"https://www.fs.usda.gov/r05/laketahoebasin/recreation/where-can-i-take-my-dog-lake-tahoe","venue":null,"acres":null,"miles":1.1,"approx":false,"osm":null},"geometry":{"type":"MultiLineString","coordinates":[[[-120.18129,39.20881],[-120.18175,39.20912],[-120.1823,39.20984],[-120.18217,39.21057],[-120.18242,39.21097],[-120.18224,39.21219],[-120.18256,39.21262],[-120.18364,39.21343],[-120.18175,39.21284],[-120.1811,39.21233],[-120.18068,39.21226],[-120.17953,39.21237]],[[-120.17953,39.21237],[-120.17858,39.21276],[-120.17683,39.21251],[-120.17676,39.21261],[-120.17701,39.21273],[-120.17695,39.21288],[-120.1762,39.21267],[-120.17546,39.21267],[-120.17514,39.21285],[-120.17528,39.21299],[-120.17477,39.21329],[-120.17459,39.21357]],[[-120.17954,39.20678],[-120.17997,39.20774],[-120.18035,39.20815],[-120.18129,39.20881]]]}},{"type":"Feature","properties":{"id":"trail-named-path-Tahoe Rim Trail (Watson Lake)","name":"Tahoe Rim Trail (Watson Lake)","kind":"trail","policy":"leashed","note":"National-forest trail — the Forest Service asks that dogs be leashed at all times; designated swim beaches are the exception, not trails.","source_url":"https://www.fs.usda.gov/r05/laketahoebasin/recreation/where-can-i-take-my-dog-lake-tahoe","venue":null,"acres":null,"miles":0.6,"approx":false,"osm":null},"geometry":{"type":"MultiLineString","coordinates":[[[-120.12915,39.22133],[-120.12862,39.22139],[-120.12789,39.22221],[-120.12721,39.22256],[-120.12714,39.22323],[-120.12753,39.22373],[-120.1299,39.22447],[-120.13089,39.22438],[-120.13228,39.22382],[-120.133,39.22371],[-120.13336,39.22382]],[[-120.12985,39.22032],[-120.12915,39.22133]]]}},{"type":"Feature","properties":{"id":"trail-named-path-Tanager Lane","name":"Tanager Lane","kind":"trail","policy":"leashed","note":"National-forest trail — the Forest Service asks that dogs be leashed at all times; designated swim beaches are the exception, not trails.","source_url":"https://www.fs.usda.gov/r05/laketahoebasin/recreation/where-can-i-take-my-dog-lake-tahoe","venue":null,"acres":null,"miles":0.0,"approx":false,"osm":null},"geometry":{"type":"MultiLineString","coordinates":[[[-120.16986,39.12915],[-120.16951,39.12978]]]}},{"type":"Feature","properties":{"id":"trail-named-path-Timberland Lane","name":"Timberland Lane","kind":"trail","policy":"leashed","note":"National-forest trail — the Forest Service asks that dogs be leashed at all times; designated swim beaches are the exception, not trails.","source_url":"https://www.fs.usda.gov/r05/laketahoebasin/recreation/where-can-i-take-my-dog-lake-tahoe","venue":null,"acres":null,"miles":0.1,"approx":false,"osm":null},"geometry":{"type":"MultiLineString","coordinates":[[[-120.16836,39.12955],[-120.16951,39.12978]]]}},{"type":"Feature","properties":{"id":"trail-named-path-Timberland/ Stanford Rock Connector","name":"Timberland/ Stanford Rock Connector","kind":"trail","policy":"leashed","note":"National-forest trail — the Forest Service asks that dogs be leashed at all times; designated swim beaches are the exception, not trails.","source_url":"https://www.fs.usda.gov/r05/laketahoebasin/recreation/where-can-i-take-my-dog-lake-tahoe","venue":null,"acres":null,"miles":0.4,"approx":false,"osm":null},"geometry":{"type":"MultiLineString","coordinates":[[[-120.16768,39.13419],[-120.16785,39.13401],[-120.16762,39.1336],[-120.16768,39.13258],[-120.16727,39.13205],[-120.16722,39.13163],[-120.16677,39.13066],[-120.16726,39.12979],[-120.16727,39.12928]]]}},{"type":"Feature","properties":{"id":"trail-named-path-Upper Missing Link","name":"Upper Missing Link","kind":"trail","policy":"leashed","note":"National-forest trail — the Forest Service asks that dogs be leashed at all times; designated swim beaches are the exception, not trails.","source_url":"https://www.fs.usda.gov/r05/laketahoebasin/recreation/where-can-i-take-my-dog-lake-tahoe","venue":null,"acres":null,"miles":0.5,"approx":false,"osm":null},"geometry":{"type":"MultiLineString","coordinates":[[[-120.18087,39.20162],[-120.18137,39.20153],[-120.18136,39.20327],[-120.18192,39.20421],[-120.18186,39.20501],[-120.18211,39.20471],[-120.18239,39.20493],[-120.18262,39.2049],[-120.18287,39.20514],[-120.18308,39.20474],[-120.18337,39.20517],[-120.18349,39.20517]],[[-120.18072,39.20064],[-120.18071,39.20124],[-120.18087,39.20162]],[[-120.1806,39.20041],[-120.18072,39.20064]]]}},{"type":"Feature","properties":{"id":"trail-named-path-Upper Rocky Ridge Connector","name":"Upper Rocky Ridge Connector","kind":"trail","policy":"leashed","note":"National-forest trail — the Forest Service asks that dogs be leashed at all times; designated swim beaches are the exception, not trails.","source_url":"https://www.fs.usda.gov/r05/laketahoebasin/recreation/where-can-i-take-my-dog-lake-tahoe","venue":null,"acres":null,"miles":0.0,"approx":false,"osm":null},"geometry":{"type":"MultiLineString","coordinates":[[[-120.13495,39.18363],[-120.13452,39.18358],[-120.13435,39.18342]]]}},{"type":"Feature","properties":{"id":"trail-named-path-Valley View Spur","name":"Valley View Spur","kind":"trail","policy":"leashed","note":"National-forest trail — the Forest Service asks that dogs be leashed at all times; designated swim beaches are the exception, not trails.","source_url":"https://www.fs.usda.gov/r05/laketahoebasin/recreation/where-can-i-take-my-dog-lake-tahoe","venue":null,"acres":null,"miles":0.6,"approx":false,"osm":null},"geometry":{"type":"MultiLineString","coordinates":[[[-120.19024,39.21299],[-120.18977,39.21399],[-120.18928,39.21456],[-120.1888,39.21487],[-120.18778,39.21512],[-120.18713,39.21555],[-120.18655,39.2162],[-120.18582,39.21652]],[[-120.18139,39.2066],[-120.18127,39.207],[-120.18105,39.20724]],[[-120.19345,39.21079],[-120.19238,39.21056],[-120.19165,39.20974],[-120.19164,39.20953],[-120.19188,39.20944],[-120.1926,39.20967]]]}},{"type":"Feature","properties":{"id":"trail-named-path-Ward Creek Park","name":"Ward Creek Park","kind":"trail","policy":"leashed","note":"National-forest trail — the Forest Service asks that dogs be leashed at all times; designated swim beaches are the exception, not trails.","source_url":"https://www.fs.usda.gov/r05/laketahoebasin/recreation/where-can-i-take-my-dog-lake-tahoe","venue":null,"acres":null,"miles":0.3,"approx":false,"osm":null},"geometry":{"type":"MultiLineString","coordinates":[[[-120.16247,39.13331],[-120.16222,39.13276],[-120.16196,39.13117],[-120.16143,39.13055],[-120.16178,39.12954],[-120.16159,39.12884]]]}},{"type":"Feature","properties":{"id":"trail-named-path-Ward Creek Trail","name":"Ward Creek Trail","kind":"trail","policy":"leashed","note":"National-forest trail — the Forest Service asks that dogs be leashed at all times; designated swim beaches are the exception, not trails.","source_url":"https://www.fs.usda.gov/r05/laketahoebasin/recreation/where-can-i-take-my-dog-lake-tahoe","venue":null,"acres":null,"miles":1.4,"approx":false,"osm":null},"geometry":{"type":"MultiLineString","coordinates":[[[-120.16754,39.13443],[-120.16768,39.13419],[-120.16755,39.13411],[-120.16688,39.13434],[-120.16634,39.13438],[-120.16588,39.13458],[-120.16516,39.1353],[-120.1643,39.13421],[-120.16294,39.13366],[-120.16258,39.13335],[-120.16247,39.13331],[-120.16208,39.13377],[-120.16166,39.13396],[-120.16058,39.13356],[-120.16002,39.13356],[-120.159,39.13292],[-120.1587,39.13244],[-120.15806,39.13217]],[[-120.17865,39.13474],[-120.17856,39.13494],[-120.17827,39.13504],[-120.17781,39.13503],[-120.17732,39.13487],[-120.17494,39.13552],[-120.17366,39.13547],[-120.17275,39.13564],[-120.17113,39.13567],[-120.16935,39.13517],[-120.16844,39.13453],[-120.16785,39.13478],[-120.16761,39.13477],[-120.16749,39.13469],[-120.16754,39.13443]]]}},{"type":"Feature","properties":{"id":"trail-named-path-Watson Peak Trail","name":"Watson Peak Trail","kind":"trail","policy":"leashed","note":"National-forest trail — the Forest Service asks that dogs be leashed at all times; designated swim beaches are the exception, not trails.","source_url":"https://www.fs.usda.gov/r05/laketahoebasin/recreation/where-can-i-take-my-dog-lake-tahoe","venue":null,"acres":null,"miles":1.1,"approx":false,"osm":null},"geometry":{"type":"MultiLineString","coordinates":[[[-120.13822,39.21933],[-120.13793,39.21956],[-120.13774,39.21954],[-120.13749,39.21898],[-120.13663,39.21955],[-120.13642,39.21951],[-120.13595,39.2188],[-120.13649,39.21792],[-120.13582,39.21778],[-120.13515,39.21801],[-120.13495,39.21783],[-120.13497,39.21764],[-120.13576,39.2171],[-120.13439,39.21698],[-120.13421,39.2172],[-120.13464,39.21924],[-120.13452,39.21984],[-120.13361,39.22102],[-120.13392,39.22148],[-120.13387,39.22159],[-120.13324,39.22168],[-120.13273,39.22156],[-120.13245,39.22178],[-120.13206,39.22186],[-120.13079,39.22169],[-120.13032,39.22128],[-120.13009,39.22054],[-120.12985,39.22032]]]}},{"type":"Feature","properties":{"id":"trail-named-path-Western States","name":"Western States","kind":"trail","policy":"leashed","note":"National-forest trail — the Forest Service asks that dogs be leashed at all times; designated swim beaches are the exception, not trails.","source_url":"https://www.fs.usda.gov/r05/laketahoebasin/recreation/where-can-i-take-my-dog-lake-tahoe","venue":null,"acres":null,"miles":1.2,"approx":false,"osm":null},"geometry":{"type":"MultiLineString","coordinates":[[[-120.1985,39.19664],[-120.19841,39.19675],[-120.19834,39.1966],[-120.19825,39.19663],[-120.19831,39.19704],[-120.1976,39.19755],[-120.19756,39.19701],[-120.19724,39.1972],[-120.19696,39.19722],[-120.19631,39.19687],[-120.19587,39.19689],[-120.19523,39.19662],[-120.19534,39.19722],[-120.19508,39.19709],[-120.19512,39.19723],[-120.19472,39.19713],[-120.1939,39.19723],[-120.19371,39.19818],[-120.19384,39.19852],[-120.19325,39.19839],[-120.19361,39.19897],[-120.19334,39.1991],[-120.19347,39.19972],[-120.19381,39.19987],[-120.19386,39.20025],[-120.19374,39.20057],[-120.1932,39.20091],[-120.19331,39.20165],[-120.19292,39.20202],[-120.19287,39.20288],[-120.19263,39.20233],[-120.19227,39.20195],[-120.1922,39.20154],[-120.19164,39.2019],[-120.19186,39.20231],[-120.19149,39.20218],[-120.19148,39.20299],[-120.19125,39.20289],[-120.19072,39.20214],[-120.19034,39.20206]]]}},{"type":"Feature","properties":{"id":"trail-named-path-Western States Trail","name":"Western States Trail","kind":"trail","policy":"leashed","note":"National-forest trail — the Forest Service asks that dogs be leashed at all times; designated swim beaches are the exception, not trails.","source_url":"https://www.fs.usda.gov/r05/laketahoebasin/recreation/where-can-i-take-my-dog-lake-tahoe","venue":null,"acres":null,"miles":1.6,"approx":false,"osm":null},"geometry":{"type":"MultiLineString","coordinates":[[[-120.20704,39.19973],[-120.2064,39.19975],[-120.20713,39.20056],[-120.20661,39.20045],[-120.20608,39.2005],[-120.2048,39.20094],[-120.20511,39.20013],[-120.20525,39.19892],[-120.20555,39.19818],[-120.20549,39.19795],[-120.20488,39.1975],[-120.20479,39.1969],[-120.2043,39.19646],[-120.20457,39.19596],[-120.20428,39.19524],[-120.20437,39.19445],[-120.2038,39.19481],[-120.20294,39.19568],[-120.20258,39.19552],[-120.20215,39.19611],[-120.201,39.19683],[-120.20052,39.19696],[-120.19994,39.19686],[-120.19955,39.19693],[-120.19898,39.19668]],[[-120.21398,39.19609],[-120.21317,39.19671],[-120.21242,39.19676],[-120.21173,39.19654],[-120.21102,39.19664],[-120.21006,39.19737],[-120.20873,39.19794],[-120.20813,39.19837],[-120.20704,39.19973]],[[-120.19898,39.19668],[-120.1984,39.19638]]]}},{"type":"Feature","properties":{"id":"trail-named-path-Whoop-dee-doo","name":"Whoop-dee-doo","kind":"trail","policy":"leashed","note":"National-forest trail — the Forest Service asks that dogs be leashed at all times; designated swim beaches are the exception, not trails.","source_url":"https://www.fs.usda.gov/r05/laketahoebasin/recreation/where-can-i-take-my-dog-lake-tahoe","venue":null,"acres":null,"miles":1.1,"approx":false,"osm":null},"geometry":{"type":"MultiLineString","coordinates":[[[-120.14768,39.20587],[-120.14861,39.20596],[-120.15049,39.2058],[-120.15133,39.20613],[-120.15246,39.20682],[-120.1532,39.20759],[-120.15405,39.20726],[-120.1551,39.20731],[-120.15582,39.207],[-120.15626,39.20661],[-120.15706,39.20641],[-120.15756,39.20612],[-120.15945,39.20578],[-120.16092,39.20607],[-120.16187,39.20661],[-120.16239,39.20707],[-120.16413,39.20791],[-120.16436,39.2079],[-120.16491,39.20758],[-120.16517,39.20687],[-120.1655,39.20677]]]}}]}
