{"type":"FeatureCollection","attribution":"Zone boundaries © OpenStreetMap contributors (ODbL); boundaries approximate","features":[{"type":"Feature","properties":{"id":"ninth-street-dog-park","name":"Ninth Street Dog Park","policy":"off-leash","note":"Mecklenburg County's Uptown off-leash dog park in Fourth Ward — open 7:30am to sunset, current vaccinations required, no kids under 12.","source_url":"https://parkandrec.mecknc.gov/Places-to-Visit/Dog-Parks","venue":"ninth-street-dog-park","acres":null,"approx":true,"osm":null},"geometry":{"type":"Polygon","coordinates":[[[-80.84086,35.234],[-80.84088,35.23409],[-80.84092,35.23418],[-80.84099,35.23426],[-80.84108,35.23431],[-80.84119,35.23435],[-80.8413,35.23436],[-80.84141,35.23435],[-80.84152,35.23431],[-80.84161,35.23426],[-80.84168,35.23418],[-80.84172,35.23409],[-80.84174,35.234],[-80.84172,35.23391],[-80.84168,35.23382],[-80.84161,35.23374],[-80.84152,35.23369],[-80.84141,35.23365],[-80.8413,35.23364],[-80.84119,35.23365],[-80.84108,35.23369],[-80.84099,35.23374],[-80.84092,35.23382],[-80.84088,35.23391],[-80.84086,35.234]]]}},{"type":"Feature","properties":{"id":"skiptown","name":"Skiptown (membership)","policy":"off-leash","note":"Private membership dog park and bar in South End — off-leash inside, with published vaccination requirements. Not a public park.","source_url":"https://www.skiptown.com/","venue":"skiptown","acres":1.02,"approx":false,"osm":"way/1217875888"},"geometry":{"type":"Polygon","coordinates":[[[-80.86413,35.20883],[-80.86402,35.20953],[-80.86461,35.20958],[-80.86471,35.2089],[-80.86413,35.20883]]]}},{"type":"Feature","properties":{"id":"freedom-park","name":"Freedom Park","policy":"leashed","note":"The signature in-town park — leashed dogs under the county parks rule; dogs must stay out of playgrounds and athletic areas where posted.","source_url":"https://parkandrec.mecknc.gov/Places-to-Visit/Dog-Parks","venue":"freedom-park","acres":103.2,"approx":false,"osm":"way/559319591"},"geometry":{"type":"Polygon","coordinates":[[[-80.84669,35.18717],[-80.84812,35.18812],[-80.84799,35.18837],[-80.84746,35.18824],[-80.84718,35.18836],[-80.84725,35.18969],[-80.84768,35.19065],[-80.84727,35.19086],[-80.84533,35.19112],[-80.84532,35.19167],[-80.84478,35.1917],[-80.84481,35.19318],[-80.84401,35.19326],[-80.84381,35.19388],[-80.84388,35.19418],[-80.84418,35.19441],[-80.84361,35.19512],[-80.84337,35.19588],[-80.84326,35.19597],[-80.843,35.19592],[-80.84257,35.19653],[-80.84219,35.19614],[-80.84089,35.19557],[-80.8392,35.19625],[-80.83879,35.19654],[-80.83795,35.1956],[-80.83863,35.19511],[-80.83872,35.1946],[-80.83951,35.19427],[-80.84004,35.1938],[-80.84167,35.1914],[-80.84311,35.18891],[-80.84313,35.18836],[-80.84264,35.18826],[-80.84278,35.1873],[-80.84316,35.18637],[-80.84393,35.18641],[-80.84551,35.18671],[-80.84669,35.18717]]]}},{"type":"Feature","properties":{"id":"romare-bearden-park","name":"Romare Bearden Park","policy":"leashed","note":"Uptown's Third Ward lawn — leashed dogs under the county parks rule.","source_url":"https://parkandrec.mecknc.gov/Places-to-Visit/Dog-Parks","venue":"romare-bearden-park","acres":4.2,"approx":false,"osm":"relation/6054694"},"geometry":{"type":"Polygon","coordinates":[[[-80.84664,35.22655],[-80.84788,35.22772],[-80.8487,35.22714],[-80.84742,35.22601],[-80.84664,35.22655]]]}},{"type":"Feature","properties":{"id":"frazier-park","name":"Frazier Park","policy":"leashed","note":"Greenway-linked park northwest of Uptown — leashed dogs under the county parks rule.","source_url":"https://parkandrec.mecknc.gov/Places-to-Visit/Dog-Parks","venue":"frazier-park","acres":22.13,"approx":false,"osm":"way/511853167"},"geometry":{"type":"Polygon","coordinates":[[[-80.85486,35.23529],[-80.85456,35.2352],[-80.85501,35.23443],[-80.8555,35.23381],[-80.85587,35.23399],[-80.85596,35.23389],[-80.85558,35.2337],[-80.85587,35.23303],[-80.85614,35.23276],[-80.85647,35.23291],[-80.85672,35.2328],[-80.85698,35.2322],[-80.85685,35.23201],[-80.8574,35.23134],[-80.85745,35.23146],[-80.85794,35.23101],[-80.85816,35.23115],[-80.85861,35.23064],[-80.85931,35.23097],[-80.85888,35.23252],[-80.85836,35.23338],[-80.85756,35.23423],[-80.85512,35.23543],[-80.85486,35.23529]]]}},{"type":"Feature","properties":{"id":"alexander-street-park","name":"Alexander Street Park","policy":"leashed","note":"Optimist Park neighborhood park — leashed dogs under the county parks rule.","source_url":"https://parkandrec.mecknc.gov/Places-to-Visit/Dog-Parks","venue":"alexander-street-park","acres":6.33,"approx":false,"osm":"way/552739180"},"geometry":{"type":"Polygon","coordinates":[[[-80.82576,35.22839],[-80.82689,35.22839],[-80.82723,35.2282],[-80.82774,35.22763],[-80.82794,35.22772],[-80.82776,35.22705],[-80.82753,35.22704],[-80.82725,35.22737],[-80.82573,35.22745],[-80.8252,35.22761],[-80.82479,35.22793],[-80.82551,35.22856],[-80.82576,35.22839]]]}},{"type":"Feature","properties":{"id":"cherry-park","name":"Cherry Park","policy":"leashed","note":"Midtown-adjacent neighborhood park on the greenway spine — leashed dogs under the county parks rule.","source_url":"https://parkandrec.mecknc.gov/Places-to-Visit/Dog-Parks","venue":"cherry-park","acres":2.61,"approx":false,"osm":"way/552715092"},"geometry":{"type":"Polygon","coordinates":[[[-80.83197,35.21033],[-80.8325,35.20996],[-80.83288,35.21028],[-80.83348,35.20972],[-80.83311,35.2092],[-80.83162,35.21004],[-80.83197,35.21033]]]}},{"type":"Feature","properties":{"id":"trail-cycleway-Briar Creek Dirtway","name":"Briar Creek Dirtway","kind":"trail","policy":"leashed","note":"Mecklenburg County greenways — leashed dogs allowed; designated dog parks are the off-leash exception.","source_url":"https://parkandrec.mecknc.gov/Places-to-Visit/Dog-Parks","venue":"little-sugar-creek-greenway","acres":null,"miles":0.3,"approx":false,"osm":null},"geometry":{"type":"MultiLineString","coordinates":[[[-80.80019,35.21414],[-80.79964,35.21351],[-80.79884,35.21382],[-80.79779,35.2148],[-80.79718,35.21574],[-80.79678,35.21655],[-80.79691,35.21678]],[[-80.79691,35.21678],[-80.79695,35.2168]]]}},{"type":"Feature","properties":{"id":"trail-cycleway-Briar Creek Greenwaay","name":"Briar Creek Greenwaay","kind":"trail","policy":"leashed","note":"Mecklenburg County greenways — leashed dogs allowed; designated dog parks are the off-leash exception.","source_url":"https://parkandrec.mecknc.gov/Places-to-Visit/Dog-Parks","venue":"little-sugar-creek-greenway","acres":null,"miles":1.4,"approx":false,"osm":null},"geometry":{"type":"MultiLineString","coordinates":[[[-80.81456,35.18696],[-80.8148,35.18698],[-80.81483,35.18726],[-80.81463,35.18783],[-80.81405,35.18809],[-80.81365,35.18845],[-80.81295,35.18957],[-80.81276,35.19132],[-80.81329,35.19314],[-80.81253,35.195],[-80.81261,35.19508]],[[-80.81261,35.19508],[-80.81286,35.19518]],[[-80.81286,35.19518],[-80.81299,35.19538],[-80.81239,35.19683],[-80.81231,35.19733],[-80.8124,35.19834],[-80.81267,35.1992]],[[-80.79517,35.21979],[-80.79461,35.21981],[-80.79459,35.22086],[-80.79436,35.22131],[-80.79399,35.22153]],[[-80.79399,35.22153],[-80.79392,35.22156],[-80.79399,35.22153]],[[-80.79397,35.22158],[-80.79418,35.22199],[-80.7948,35.22209]],[[-80.79633,35.22251],[-80.79548,35.22248],[-80.79481,35.22228]],[[-80.79455,35.22225],[-80.7943,35.22218],[-80.79421,35.222]],[[-80.7937,35.22161],[-80.79392,35.22156]],[[-80.7937,35.22161],[-80.79343,35.22158]],[[-80.79343,35.22158],[-80.79294,35.22207],[-80.79232,35.22237],[-80.79166,35.22219]]]}},{"type":"Feature","properties":{"id":"trail-cycleway-Briar Creek Greenway","name":"Briar Creek Greenway","kind":"trail","policy":"leashed","note":"Mecklenburg County greenways — leashed dogs allowed; designated dog parks are the off-leash exception.","source_url":"https://parkandrec.mecknc.gov/Places-to-Visit/Dog-Parks","venue":"little-sugar-creek-greenway","acres":null,"miles":1.3,"approx":false,"osm":null},"geometry":{"type":"MultiLineString","coordinates":[[[-80.85083,35.15842],[-80.85052,35.15832],[-80.85017,35.15794]],[[-80.85017,35.15794],[-80.84979,35.15755]],[[-80.84979,35.15755],[-80.84954,35.15755],[-80.84886,35.15818],[-80.84837,35.15825]],[[-80.84837,35.15825],[-80.84824,35.15826]],[[-80.83544,35.16585],[-80.83577,35.16615],[-80.83591,35.16662],[-80.83629,35.16674],[-80.83626,35.16694]],[[-80.83563,35.16797],[-80.8358,35.16798]],[[-80.8358,35.16798],[-80.83625,35.1683],[-80.83674,35.16815]],[[-80.83689,35.16926],[-80.83713,35.16989],[-80.83782,35.17091]],[[-80.83782,35.17091],[-80.83782,35.17093]],[[-80.83782,35.17093],[-80.83814,35.17214],[-80.83807,35.17234],[-80.83738,35.17253],[-80.83596,35.17241],[-80.83513,35.17259],[-80.83422,35.17245],[-80.83257,35.17361]],[[-80.83257,35.17361],[-80.83252,35.17366]],[[-80.83679,35.16825],[-80.83684,35.16902]],[[-80.83563,35.1676],[-80.83563,35.16797]],[[-80.84824,35.15826],[-80.84821,35.15826]],[[-80.84821,35.15826],[-80.8475,35.15811],[-80.84692,35.15829],[-80.84635,35.15818]],[[-80.84799,35.15773],[-80.84837,35.15746]],[[-80.84742,35.15811],[-80.84784,35.15787]],[[-80.84784,35.15787],[-80.84799,35.15773]],[[-80.84864,35.15754],[-80.84938,35.15729],[-80.84966,35.1575]],[[-80.83684,35.16902],[-80.83689,35.16926]],[[-80.84563,35.15819],[-80.84547,35.15815]],[[-80.84635,35.15818],[-80.84563,35.15819]]]}},{"type":"Feature","properties":{"id":"trail-cycleway-Charlotte Rail Trail","name":"Charlotte Rail Trail","kind":"trail","policy":"leashed","note":"Mecklenburg County greenways — leashed dogs allowed; designated dog parks are the off-leash exception.","source_url":"https://parkandrec.mecknc.gov/Places-to-Visit/Dog-Parks","venue":"little-sugar-creek-greenway","acres":null,"miles":6.3,"approx":false,"osm":null},"geometry":{"type":"MultiLineString","coordinates":[[[-80.86032,35.2104],[-80.85868,35.21235]],[[-80.8694,35.19946],[-80.86731,35.20203]],[[-80.86634,35.20324],[-80.86054,35.21039]],[[-80.85406,35.21675],[-80.85682,35.21466],[-80.85672,35.21459]],[[-80.85554,35.21541],[-80.85567,35.21553]],[[-80.86932,35.1993],[-80.87166,35.19642],[-80.87207,35.19583],[-80.87199,35.19566],[-80.87259,35.19524],[-80.87328,35.19441]],[[-80.84323,35.22368],[-80.84363,35.22342]],[[-80.84363,35.22342],[-80.84418,35.22306]],[[-80.83245,35.23154],[-80.83544,35.22922]],[[-80.87572,35.18977],[-80.8766,35.18818],[-80.87696,35.18786],[-80.87686,35.18772],[-80.87699,35.18767]],[[-80.83245,35.23154],[-80.83209,35.23127]],[[-80.83209,35.23127],[-80.83132,35.23071]],[[-80.87328,35.19441],[-80.87511,35.19121]],[[-80.83867,35.22686],[-80.83967,35.22614]],[[-80.83779,35.22769],[-80.83766,35.22758]],[[-80.83881,35.22698],[-80.83982,35.22626]],[[-80.86923,35.19941],[-80.86717,35.20193]],[[-80.84177,35.2247],[-80.84217,35.22442]],[[-80.84217,35.22442],[-80.84289,35.22392]],[[-80.83965,35.22616],[-80.8398,35.22627]],[[-80.85138,35.21857],[-80.85124,35.21847]],[[-80.85394,35.21678],[-80.85383,35.21667]],[[-80.85384,35.21665],[-80.85136,35.21837]],[[-80.86041,35.2103],[-80.86054,35.21039]],[[-80.86951,35.19935],[-80.86933,35.19928]],[[-80.8694,35.19946],[-80.86923,35.19941]],[[-80.86649,35.20311],[-80.86632,35.20298]],[[-80.83245,35.23154],[-80.83256,35.23164]],[[-80.83256,35.23164],[-80.83459,35.2301]],[[-80.83459,35.2301],[-80.83559,35.22933]],[[-80.83557,35.22934],[-80.83543,35.22923]],[[-80.83871,35.22706],[-80.83856,35.22693]],[[-80.83883,35.22697],[-80.83869,35.22684]],[[-80.84104,35.22511],[-80.8412,35.225],[-80.8413,35.22508]],[[-80.84064,35.22561],[-80.84053,35.22552]],[[-80.82384,35.23631],[-80.82302,35.23654],[-80.82282,35.2372],[-80.81546,35.24282]],[[-80.82604,35.23478],[-80.82384,35.23631]],[[-80.83764,35.2276],[-80.83858,35.22692]],[[-80.84289,35.22392],[-80.84323,35.22368]],[[-80.84073,35.22553],[-80.84115,35.2252]],[[-80.84063,35.22544],[-80.84104,35.22511]],[[-80.83973,35.22608],[-80.84063,35.22544]],[[-80.84115,35.2252],[-80.84177,35.2247]],[[-80.86539,35.20413],[-80.86617,35.20312]],[[-80.86457,35.20515],[-80.86539,35.20413]],[[-80.83993,35.22619],[-80.83979,35.22609]],[[-80.8399,35.2262],[-80.84073,35.22553]],[[-80.83553,35.22915],[-80.83756,35.22765]],[[-80.83544,35.22922],[-80.83553,35.22915]],[[-80.83569,35.22926],[-80.83556,35.22913]],[[-80.83559,35.22933],[-80.83567,35.22927]],[[-80.83459,35.2301],[-80.83447,35.22999]],[[-80.85126,35.21845],[-80.84985,35.21947]],[[-80.85136,35.21837],[-80.85126,35.21845]],[[-80.8515,35.21851],[-80.85138,35.21857]],[[-80.85554,35.21541],[-80.85391,35.2166]],[[-80.85391,35.2166],[-80.85384,35.21665]],[[-80.8515,35.21851],[-80.854,35.21679]],[[-80.854,35.21679],[-80.85406,35.21675]],[[-80.84418,35.22306],[-80.84426,35.22302]],[[-80.84426,35.22302],[-80.84434,35.22298]],[[-80.82777,35.23345],[-80.82698,35.23394],[-80.82617,35.23469]],[[-80.82614,35.23471],[-80.82604,35.23478]],[[-80.86632,35.20298],[-80.86617,35.20312]],[[-80.86708,35.20205],[-80.86632,35.20298]],[[-80.86717,35.20193],[-80.86708,35.20205]],[[-80.86723,35.20214],[-80.86649,35.20311]],[[-80.86731,35.20203],[-80.86723,35.20214]],[[-80.86649,35.20311],[-80.86641,35.20318]],[[-80.86641,35.20318],[-80.86634,35.20324]],[[-80.85672,35.21459],[-80.85554,35.21541]],[[-80.85682,35.21449],[-80.85672,35.21459]],[[-80.85852,35.21253],[-80.85761,35.21373],[-80.85682,35.21449]],[[-80.85868,35.21235],[-80.85852,35.21253]],[[-80.8428,35.22384],[-80.84315,35.2236]],[[-80.84362,35.22343],[-80.84354,35.22335],[-80.84315,35.2236]],[[-80.84287,35.22393],[-80.8428,35.22384]],[[-80.83776,35.22771],[-80.83873,35.22704]],[[-80.83769,35.22776],[-80.83755,35.22766]],[[-80.83567,35.22927],[-80.83569,35.22926]],[[-80.87511,35.19121],[-80.87556,35.19043],[-80.87572,35.18977]],[[-80.87696,35.18786],[-80.87699,35.18785]],[[-80.82786,35.23317],[-80.8278,35.23338]],[[-80.82617,35.23469],[-80.82614,35.23471]],[[-80.86041,35.2103],[-80.86036,35.21025]],[[-80.86032,35.2104],[-80.86026,35.21032]]]}},{"type":"Feature","properties":{"id":"trail-cycleway-Greenway / paved trail","name":"Greenway / paved trail","kind":"trail","policy":"leashed","note":"Mecklenburg County greenways — leashed dogs allowed; designated dog parks are the off-leash exception.","source_url":"https://parkandrec.mecknc.gov/Places-to-Visit/Dog-Parks","venue":"little-sugar-creek-greenway","acres":null,"miles":17.2,"approx":false,"osm":null},"geometry":{"type":"MultiLineString","coordinates":[[[-80.85446,35.19892],[-80.85518,35.19911],[-80.8565,35.19895],[-80.85683,35.1988],[-80.85732,35.19878],[-80.85763,35.19824],[-80.85852,35.19827]],[[-80.83314,35.21782],[-80.83319,35.2179]],[[-80.83305,35.21765],[-80.83314,35.21782]],[[-80.85656,35.19893],[-80.85678,35.1991],[-80.85821,35.19939],[-80.8584,35.19934],[-80.85857,35.19905]],[[-80.85857,35.19905],[-80.8586,35.19895]],[[-80.8586,35.19895],[-80.85852,35.19827]],[[-80.8562,35.17617],[-80.8568,35.17601]],[[-80.8568,35.17601],[-80.85696,35.17598]],[[-80.85696,35.17598],[-80.85713,35.17598]],[[-80.86827,35.23082],[-80.86846,35.23103],[-80.86842,35.23135]],[[-80.8687,35.23326],[-80.86882,35.23326]],[[-80.86907,35.23326],[-80.86882,35.23326]],[[-80.86929,35.2326],[-80.86926,35.23313],[-80.86907,35.23326]],[[-80.83418,35.21674],[-80.83361,35.21705]],[[-80.83338,35.21801],[-80.83326,35.21789],[-80.83311,35.21798],[-80.83323,35.21811],[-80.83338,35.21801]],[[-80.82721,35.21763],[-80.82695,35.21749]],[[-80.82644,35.21783],[-80.82596,35.21702],[-80.82548,35.21652],[-80.82539,35.21609],[-80.82473,35.21596],[-80.82308,35.21612]],[[-80.85508,35.23426],[-80.85541,35.23428]],[[-80.85549,35.23423],[-80.85566,35.234],[-80.85542,35.23382]],[[-80.85605,35.23419],[-80.85645,35.23423],[-80.85694,35.23372]],[[-80.85694,35.23372],[-80.85696,35.23324]],[[-80.8332,35.2181],[-80.83316,35.21821]],[[-80.84837,35.26225],[-80.84809,35.26334]],[[-80.86064,35.23182],[-80.86066,35.23135]],[[-80.8568,35.22939],[-80.85667,35.22956]],[[-80.85772,35.23001],[-80.85748,35.23018]],[[-80.82211,35.21567],[-80.82183,35.21491],[-80.82172,35.21333],[-80.82142,35.21283]],[[-80.81155,35.20925],[-80.81194,35.20974],[-80.81247,35.21011]],[[-80.7652,35.20042],[-80.76509,35.20021]],[[-80.86842,35.23135],[-80.86801,35.23191]],[[-80.85852,35.19827],[-80.8585,35.19821]],[[-80.81046,35.22161],[-80.80784,35.23204]],[[-80.80833,35.23262],[-80.80799,35.23264],[-80.80795,35.23252],[-80.8106,35.22167]],[[-80.80838,35.24183],[-80.80841,35.24174]],[[-80.86792,35.2492],[-80.86768,35.2491]],[[-80.8947,35.27913],[-80.89616,35.27995],[-80.89662,35.28056],[-80.8968,35.28153],[-80.89642,35.28236]],[[-80.76891,35.25823],[-80.76894,35.25781],[-80.76945,35.25731],[-80.76983,35.25717],[-80.77052,35.25718],[-80.77091,35.25696],[-80.77122,35.25645],[-80.77134,35.25592]],[[-80.77148,35.25581],[-80.77163,35.25574],[-80.77226,35.25599],[-80.77322,35.25575],[-80.77366,35.25552],[-80.77414,35.2555]],[[-80.77134,35.25592],[-80.77148,35.25581]],[[-80.85441,35.22574],[-80.8545,35.22574]],[[-80.85311,35.22433],[-80.85309,35.22442]],[[-80.85329,35.2245],[-80.8528,35.22441],[-80.85214,35.22449],[-80.85134,35.22507],[-80.85114,35.22581],[-80.85154,35.22683]],[[-80.85154,35.22683],[-80.85152,35.22728]],[[-80.8542,35.2249],[-80.85406,35.22499]],[[-80.85441,35.22574],[-80.85439,35.22574]],[[-80.85309,35.22442],[-80.85308,35.22444]],[[-80.84597,35.17005],[-80.84548,35.17068],[-80.84495,35.17092]],[[-80.84487,35.17111],[-80.84563,35.17164]],[[-80.7844,35.1814],[-80.78443,35.1818]],[[-80.83265,35.24405],[-80.8306,35.24664]],[[-80.89104,35.20771],[-80.89145,35.20743],[-80.89183,35.20737]],[[-80.89115,35.20713],[-80.89163,35.20714],[-80.89193,35.20729]],[[-80.88869,35.20893],[-80.88869,35.20963],[-80.88813,35.2096],[-80.88804,35.20969],[-80.88878,35.21016]],[[-80.88509,35.20656],[-80.88507,35.20631]],[[-80.88509,35.20656],[-80.88505,35.20701]],[[-80.88507,35.20631],[-80.88484,35.20591],[-80.88436,35.20578],[-80.88418,35.20557]],[[-80.8777,35.2133],[-80.8772,35.21345],[-80.87717,35.21303]],[[-80.87713,35.21311],[-80.87704,35.21308]],[[-80.87701,35.21355],[-80.87715,35.21342]],[[-80.8765,35.21392],[-80.8764,35.21384]],[[-80.87516,35.21482],[-80.87475,35.21446]],[[-80.87297,35.21713],[-80.87293,35.21768]],[[-80.87315,35.21736],[-80.87297,35.21743]],[[-80.86041,35.2103],[-80.86117,35.20927],[-80.86124,35.20889],[-80.86158,35.20847],[-80.86193,35.20834],[-80.86409,35.20574]],[[-80.85779,35.23627],[-80.85521,35.23565]],[[-80.85566,35.23465],[-80.85583,35.23445]],[[-80.85561,35.23471],[-80.85566,35.23465]],[[-80.85519,35.23522],[-80.85561,35.23471]],[[-80.85761,35.23647],[-80.85773,35.23625]],[[-80.83674,35.16815],[-80.83679,35.16818]],[[-80.83679,35.16818],[-80.8368,35.1682]],[[-80.8368,35.1682],[-80.83679,35.16825]],[[-80.84609,35.17726],[-80.84579,35.17737]],[[-80.84604,35.17366],[-80.84595,35.17366]],[[-80.84612,35.17445],[-80.84596,35.17445]],[[-80.84614,35.17546],[-80.84598,35.17546]],[[-80.84596,35.17667],[-80.84616,35.17673]],[[-80.84523,35.18025],[-80.84506,35.18025]],[[-80.84441,35.18648],[-80.84444,35.18638]],[[-80.83637,35.2064],[-80.83643,35.20635]],[[-80.83637,35.20933],[-80.83626,35.20934],[-80.83629,35.20924]],[[-80.83561,35.21472],[-80.83573,35.2147],[-80.83561,35.21472]],[[-80.83305,35.21765],[-80.83299,35.21755]],[[-80.83632,35.20936],[-80.8362,35.21029]],[[-80.8292,35.2196],[-80.82947,35.21961],[-80.83003,35.21929]],[[-80.82999,35.21931],[-80.83026,35.2196],[-80.83076,35.21937]],[[-80.8228,35.23045],[-80.82288,35.23051]],[[-80.82214,35.23031],[-80.82209,35.22989]],[[-80.82311,35.23348],[-80.82286,35.23323]],[[-80.82049,35.23382],[-80.82081,35.23422]],[[-80.8207,35.23426],[-80.8201,35.23488]],[[-80.83531,35.21555],[-80.83452,35.21635]],[[-80.83674,35.20716],[-80.83634,35.20711]],[[-80.83674,35.20716],[-80.83682,35.20717]],[[-80.83634,35.20711],[-80.83619,35.20709]],[[-80.83621,35.2053],[-80.83621,35.2054],[-80.83621,35.2053]],[[-80.83623,35.20539],[-80.83639,35.20632]],[[-80.83613,35.20524],[-80.83618,35.20531]],[[-80.83694,35.20467],[-80.83695,35.2046]],[[-80.9114,35.18205],[-80.91138,35.18143],[-80.91126,35.18141],[-80.91104,35.18161]],[[-80.91104,35.18161],[-80.91093,35.18153]],[[-80.91093,35.18153],[-80.91084,35.18131]],[[-80.82918,35.22514],[-80.82967,35.22545]],[[-80.85338,35.15635],[-80.85295,35.15613],[-80.85287,35.15596]],[[-80.85215,35.15767],[-80.85215,35.15729]],[[-80.77745,35.25427],[-80.77689,35.25362],[-80.77647,35.25275]],[[-80.77163,35.25574],[-80.77144,35.25512]],[[-80.83278,35.23181],[-80.83256,35.23164]],[[-80.83231,35.23163],[-80.83246,35.23175]],[[-80.85366,35.23742],[-80.85381,35.23729]],[[-80.84493,35.23624],[-80.84479,35.23634]],[[-80.84436,35.23687],[-80.84424,35.23684]],[[-80.80838,35.24183],[-80.80841,35.24174]],[[-80.82822,35.2247],[-80.82905,35.2251]],[[-80.82782,35.22441],[-80.8281,35.22463]],[[-80.8281,35.22463],[-80.82816,35.22466]],[[-80.8319,35.2227],[-80.83174,35.22259]],[[-80.86036,35.21025],[-80.86026,35.21032]],[[-80.81154,35.24223],[-80.81149,35.24226]],[[-80.81101,35.2423],[-80.81128,35.2424]],[[-80.81154,35.24223],[-80.81129,35.24223]],[[-80.81185,35.24229],[-80.81166,35.24224]],[[-80.81191,35.24231],[-80.81185,35.24229]],[[-80.81204,35.24194],[-80.81159,35.24222]],[[-80.8118,35.24244],[-80.81188,35.24235]],[[-80.81121,35.24287],[-80.81156,35.24251]],[[-80.81135,35.24243],[-80.81152,35.24249]],[[-80.81134,35.24236],[-80.81128,35.2424]],[[-80.81149,35.24226],[-80.81134,35.24236]],[[-80.81152,35.24249],[-80.81156,35.24251]],[[-80.81166,35.24224],[-80.81159,35.24222]],[[-80.82864,35.21927],[-80.82894,35.21944]],[[-80.82852,35.21921],[-80.82864,35.21927]],[[-80.82721,35.21763],[-80.82687,35.21809],[-80.82852,35.21921]],[[-80.82894,35.21944],[-80.82914,35.21952]],[[-80.82915,35.21954],[-80.82914,35.21952]],[[-80.8292,35.2196],[-80.82915,35.21954]],[[-80.82763,35.21713],[-80.82727,35.21767]],[[-80.8255,35.22105],[-80.82584,35.22104]],[[-80.82593,35.22103],[-80.82595,35.22102]],[[-80.82584,35.22104],[-80.82593,35.22103]],[[-80.81001,35.24246],[-80.8103,35.24222],[-80.81101,35.2423]],[[-80.81129,35.24223],[-80.81119,35.24226]],[[-80.81125,35.24258],[-80.81119,35.24276]],[[-80.81103,35.2431],[-80.81121,35.24287]],[[-80.81216,35.2419],[-80.81204,35.24194]],[[-80.85135,35.21856],[-80.85032,35.21933]],[[-80.82742,35.22292],[-80.82762,35.22288]],[[-80.82679,35.22179],[-80.82673,35.22181]],[[-80.81273,35.20976],[-80.81247,35.21011]],[[-80.85901,35.24188],[-80.85876,35.24161]],[[-80.85831,35.2415],[-80.85866,35.24189]],[[-80.85876,35.24161],[-80.85864,35.2416]],[[-80.85851,35.24156],[-80.85841,35.24151]],[[-80.85841,35.24151],[-80.85831,35.2415]],[[-80.85864,35.2416],[-80.85851,35.24156]],[[-80.85879,35.24192],[-80.85881,35.24173]],[[-80.85874,35.24202],[-80.85879,35.24192]],[[-80.85881,35.24173],[-80.85883,35.24171]],[[-80.85878,35.24196],[-80.85901,35.24188]],[[-80.8586,35.24162],[-80.85857,35.24169]],[[-80.85857,35.24169],[-80.85856,35.2417]],[[-80.85862,35.2416],[-80.8586,35.24162]],[[-80.83983,35.22938],[-80.84071,35.22876]],[[-80.78149,35.22979],[-80.78113,35.22937]],[[-80.82934,35.24832],[-80.82919,35.24831]],[[-80.82949,35.24863],[-80.82942,35.24872]],[[-80.83051,35.24678],[-80.82934,35.24829],[-80.82951,35.24868]],[[-80.8306,35.24664],[-80.83051,35.24678]],[[-80.81515,35.24293],[-80.81528,35.24283]],[[-80.81481,35.24319],[-80.81515,35.24293]],[[-80.81528,35.24283],[-80.81539,35.24276]],[[-80.81539,35.24276],[-80.81546,35.24282]],[[-80.80784,35.23204],[-80.80781,35.23205]],[[-80.81074,35.22039],[-80.81049,35.22145]],[[-80.81049,35.22145],[-80.81046,35.22161]],[[-80.81064,35.2215],[-80.81092,35.22038]],[[-80.8106,35.22167],[-80.81064,35.2215]],[[-80.81093,35.22015],[-80.81084,35.21961]],[[-80.81092,35.22038],[-80.81093,35.22015]],[[-80.84851,35.16014],[-80.84847,35.15999]],[[-80.84823,35.15949],[-80.8482,35.15944]],[[-80.84853,35.16017],[-80.84851,35.16014]],[[-80.84308,35.19586],[-80.84312,35.19579]],[[-80.77731,35.1916],[-80.77802,35.19201]],[[-80.77802,35.19201],[-80.77812,35.19206]],[[-80.77812,35.19206],[-80.77976,35.19276]],[[-80.77976,35.19276],[-80.77998,35.19284]],[[-80.77998,35.19284],[-80.78139,35.19344]],[[-80.86032,35.2104],[-80.86042,35.21052]],[[-80.84529,35.16783],[-80.84522,35.16798]],[[-80.87431,35.23586],[-80.87426,35.23593]],[[-80.87447,35.23606],[-80.87439,35.23606]],[[-80.87374,35.23654],[-80.8738,35.23659]],[[-80.87388,35.23648],[-80.87385,35.23654]],[[-80.87405,35.23691],[-80.87407,35.23696]],[[-80.87408,35.23694],[-80.87416,35.23693]],[[-80.87475,35.23704],[-80.87482,35.23705]],[[-80.87485,35.2371],[-80.87488,35.23705]],[[-80.87493,35.23624],[-80.8749,35.23618]],[[-80.87504,35.23602],[-80.87496,35.23602]],[[-80.8738,35.23659],[-80.87384,35.23662]],[[-80.8739,35.23644],[-80.87388,35.23648]],[[-80.87403,35.23687],[-80.87405,35.23691]],[[-80.87416,35.23693],[-80.87419,35.23692]],[[-80.87471,35.23703],[-80.87475,35.23704]],[[-80.87488,35.23705],[-80.8749,35.23701]],[[-80.87495,35.23627],[-80.87493,35.23624]],[[-80.87496,35.23602],[-80.87491,35.23602]],[[-80.87452,35.23607],[-80.87447,35.23606]],[[-80.87426,35.23593],[-80.87424,35.23598]],[[-80.846,35.17312],[-80.84576,35.17313]],[[-80.8458,35.17314],[-80.84593,35.17326]],[[-80.83674,35.20486],[-80.83695,35.2046]],[[-80.81415,35.24843],[-80.81407,35.24849]],[[-80.82615,35.21731],[-80.82695,35.21749]],[[-80.82545,35.21638],[-80.8245,35.21621],[-80.8236,35.21633],[-80.82308,35.21612]],[[-80.82529,35.21641],[-80.82548,35.21652]],[[-80.82625,35.21739],[-80.82622,35.21743]],[[-80.82734,35.21706],[-80.82684,35.21742]],[[-80.87007,35.24755],[-80.86912,35.24805]],[[-80.86912,35.24805],[-80.86896,35.2481]],[[-80.86896,35.2481],[-80.86889,35.24813]],[[-80.86868,35.24772],[-80.86889,35.24813]],[[-80.87083,35.24711],[-80.87091,35.24707]],[[-80.84825,35.15948],[-80.84851,35.15975],[-80.84847,35.15999]],[[-80.82177,35.21366],[-80.82097,35.21304],[-80.82114,35.21286],[-80.82142,35.21283]],[[-80.87003,35.24771],[-80.86996,35.24765]],[[-80.86694,35.20249],[-80.86662,35.20292]],[[-80.86928,35.19929],[-80.8692,35.1994]],[[-80.86948,35.19934],[-80.8694,35.19946]],[[-80.86054,35.21039],[-80.86048,35.21046]],[[-80.86042,35.21052],[-80.86048,35.21046]],[[-80.82816,35.22466],[-80.82818,35.22467]],[[-80.83342,35.24279],[-80.8335,35.24286],[-80.83275,35.24392]],[[-80.83275,35.24392],[-80.83265,35.24405]],[[-80.80818,35.23262],[-80.80817,35.2326]],[[-80.81852,35.22564],[-80.81678,35.22436]],[[-80.81177,35.24247],[-80.8118,35.24244]],[[-80.81156,35.24251],[-80.81177,35.24247]],[[-80.85439,35.22574],[-80.85415,35.22508],[-80.8537,35.22468],[-80.85329,35.2245]],[[-80.81128,35.24241],[-80.81125,35.24258]],[[-80.81128,35.24241],[-80.81135,35.24243]],[[-80.79803,35.19003],[-80.79669,35.1904]],[[-80.89314,35.20652],[-80.8929,35.20684],[-80.89306,35.20692],[-80.89324,35.20669],[-80.89285,35.20597],[-80.89303,35.20598],[-80.89331,35.20642],[-80.89313,35.20669]],[[-80.89332,35.20644],[-80.89314,35.20652]],[[-80.89291,35.20698],[-80.89254,35.20712]],[[-80.89291,35.20698],[-80.893,35.20692]],[[-80.89293,35.20688],[-80.89291,35.20698]],[[-80.89294,35.20689],[-80.89292,35.20689]],[[-80.89298,35.20693],[-80.89298,35.20691]],[[-80.89263,35.20702],[-80.89271,35.20667],[-80.89305,35.20636]],[[-80.89287,35.20608],[-80.89262,35.20609],[-80.89267,35.20633],[-80.89225,35.20671],[-80.89223,35.20695]],[[-80.8927,35.20669],[-80.89247,35.20659]],[[-80.89286,35.20648],[-80.89265,35.20636]],[[-80.89275,35.20636],[-80.89267,35.20629]],[[-80.89294,35.20642],[-80.89285,35.20642]],[[-80.89268,35.20676],[-80.89262,35.2067]],[[-80.89252,35.20665],[-80.89241,35.20663]],[[-80.89262,35.20609],[-80.89225,35.20671]],[[-80.89231,35.20666],[-80.89224,35.20663]],[[-80.89279,35.20604],[-80.89284,35.20601]],[[-80.8929,35.20682],[-80.89268,35.20678]],[[-80.89274,35.20684],[-80.89268,35.20686]],[[-80.8929,35.20684],[-80.89287,35.20684]],[[-80.89321,35.20673],[-80.89305,35.20664]],[[-80.89281,35.20727],[-80.89295,35.20716],[-80.89284,35.20701]],[[-80.89289,35.20704],[-80.89289,35.207]],[[-80.8909,35.20783],[-80.89084,35.20789]],[[-80.86864,35.24198],[-80.86895,35.242],[-80.86912,35.2422],[-80.86898,35.24396],[-80.86924,35.24447],[-80.86933,35.24567],[-80.86852,35.24685]],[[-80.82142,35.21283],[-80.82133,35.21271]],[[-80.8065,35.19998],[-80.80605,35.19983],[-80.80616,35.19958],[-80.80545,35.19932],[-80.80578,35.19885],[-80.80631,35.19827],[-80.80688,35.19842],[-80.80744,35.19878]],[[-80.82308,35.21612],[-80.82281,35.21617],[-80.82256,35.21589],[-80.82225,35.21579]],[[-80.77618,35.2627],[-80.77615,35.26263]],[[-80.81423,35.2436],[-80.81433,35.24352]],[[-80.78804,35.25839],[-80.78805,35.25828]],[[-80.78807,35.25824],[-80.78808,35.25815]],[[-80.76898,35.2658],[-80.769,35.26583]],[[-80.769,35.26583],[-80.76914,35.26589]],[[-80.76932,35.26596],[-80.76942,35.266]],[[-80.91385,35.18547],[-80.91483,35.18424]],[[-80.91224,35.18291],[-80.91161,35.18257],[-80.91134,35.18228]],[[-80.91325,35.18345],[-80.91233,35.18296]],[[-80.91233,35.18296],[-80.91224,35.18291]],[[-80.80119,35.21684],[-80.80087,35.21696]],[[-80.80119,35.21684],[-80.80133,35.21679]],[[-80.80081,35.21698],[-80.80077,35.21699]],[[-80.88046,35.25118],[-80.88071,35.25125],[-80.88156,35.25112]],[[-80.88067,35.25191],[-80.88041,35.25159],[-80.88056,35.25122]],[[-80.88073,35.25197],[-80.88067,35.25191]],[[-80.88168,35.25324],[-80.88073,35.25197]],[[-80.87678,35.24827],[-80.87634,35.24877],[-80.87551,35.24868]],[[-80.87252,35.24898],[-80.87246,35.24887]],[[-80.87246,35.24911],[-80.87254,35.24909]],[[-80.86929,35.2328],[-80.86934,35.23279]],[[-80.86934,35.23279],[-80.86946,35.23279]],[[-80.86946,35.23279],[-80.8695,35.23279]],[[-80.86929,35.2326],[-80.86934,35.2326]],[[-80.86934,35.2326],[-80.86945,35.2326]],[[-80.86945,35.2326],[-80.8695,35.2326]],[[-80.81191,35.24231],[-80.81208,35.24197]],[[-80.81214,35.24247],[-80.81192,35.24231]],[[-80.81188,35.24235],[-80.81192,35.24231]],[[-80.81192,35.24231],[-80.81191,35.24231]],[[-80.81159,35.24222],[-80.81154,35.24223]],[[-80.81128,35.2424],[-80.81128,35.24241]],[[-80.8367,35.20538],[-80.83694,35.20467]],[[-80.84117,35.20259],[-80.84022,35.20202],[-80.84055,35.20145],[-80.84049,35.20097]],[[-80.84117,35.20259],[-80.84165,35.20271],[-80.84173,35.20302]],[[-80.84019,35.20205],[-80.84017,35.20198]],[[-80.84017,35.20198],[-80.84007,35.20193]],[[-80.84032,35.20119],[-80.84035,35.20118]],[[-80.84035,35.20118],[-80.84047,35.20117]],[[-80.84047,35.20117],[-80.84052,35.20116]],[[-80.84049,35.20097],[-80.84043,35.20098]],[[-80.84043,35.20098],[-80.84032,35.20099]],[[-80.84032,35.20099],[-80.84028,35.20105]],[[-80.84026,35.20093],[-80.84027,35.201]],[[-80.84028,35.20103],[-80.83982,35.20106]],[[-80.8378,35.19979],[-80.83756,35.20065]],[[-80.87296,35.24819],[-80.87267,35.24792],[-80.87287,35.24755]],[[-80.88161,35.25167],[-80.88121,35.25178]],[[-80.81247,35.21011],[-80.81298,35.21047]],[[-80.81151,35.2092],[-80.81155,35.20925]],[[-80.85491,35.23558],[-80.85519,35.23522]],[[-80.85507,35.23561],[-80.85491,35.23558]],[[-80.85866,35.24189],[-80.85882,35.24192]],[[-80.81494,35.24309],[-80.81485,35.24304]],[[-80.84912,35.25436],[-80.84951,35.25449]],[[-80.82301,35.23631],[-80.8231,35.23613]],[[-80.79878,35.25225],[-80.79885,35.25236]],[[-80.79885,35.25236],[-80.79907,35.25267]],[[-80.79907,35.25267],[-80.799,35.2527]],[[-80.799,35.2527],[-80.79895,35.25271]],[[-80.84468,35.24758],[-80.8443,35.24793]],[[-80.85644,35.23398],[-80.85656,35.23409]],[[-80.86842,35.23054],[-80.86846,35.23048]],[[-80.86813,35.23046],[-80.86812,35.23042]],[[-80.86798,35.23044],[-80.86797,35.23049]],[[-80.90895,35.21542],[-80.90824,35.21546]],[[-80.85062,35.21907],[-80.85053,35.21898]],[[-80.83972,35.2279],[-80.83876,35.2286],[-80.83971,35.22942],[-80.83983,35.22938]],[[-80.85449,35.18939],[-80.85453,35.18972],[-80.85415,35.19012],[-80.85448,35.1904]],[[-80.79022,35.21374],[-80.78983,35.21436]],[[-80.86786,35.24038],[-80.86763,35.24051]],[[-80.78606,35.25444],[-80.78583,35.25447]],[[-80.78583,35.25447],[-80.78575,35.25448]],[[-80.78575,35.25448],[-80.78523,35.2545]],[[-80.78523,35.2545],[-80.78519,35.25451]],[[-80.78606,35.25444],[-80.7861,35.25443]],[[-80.91202,35.20205],[-80.91195,35.20213]],[[-80.91195,35.20213],[-80.91188,35.20223]],[[-80.80087,35.21696],[-80.80081,35.21698]],[[-80.76743,35.25565],[-80.76766,35.25646],[-80.76743,35.25698],[-80.76744,35.25738],[-80.76829,35.2578],[-80.76894,35.25784]],[[-80.87146,35.19341],[-80.87048,35.19278]],[[-80.8704,35.19272],[-80.86922,35.19191]],[[-80.87048,35.19278],[-80.8704,35.19272]],[[-80.81433,35.24352],[-80.81439,35.24347]],[[-80.81421,35.24362],[-80.81423,35.2436]],[[-80.86464,35.23548],[-80.86456,35.23551]],[[-80.87083,35.24711],[-80.87027,35.24742]],[[-80.87027,35.24742],[-80.87007,35.24755]],[[-80.87551,35.24868],[-80.87537,35.2487]],[[-80.88133,35.25173],[-80.88137,35.25188]],[[-80.89447,35.27902],[-80.89451,35.27902]],[[-80.89451,35.27902],[-80.8947,35.27913]],[[-80.89477,35.27912],[-80.89473,35.27898]],[[-80.89478,35.27917],[-80.89477,35.27912]],[[-80.85256,35.22416],[-80.85251,35.22405],[-80.8511,35.22345]],[[-80.79874,35.25239],[-80.80203,35.25108]],[[-80.80203,35.25108],[-80.80282,35.25103]],[[-80.80282,35.25103],[-80.80358,35.25079]],[[-80.76894,35.26581],[-80.76814,35.26546]],[[-80.8487,35.22161],[-80.84868,35.2216]],[[-80.83231,35.23163],[-80.83235,35.23161]],[[-80.83258,35.23165],[-80.83255,35.23168]],[[-80.83249,35.23173],[-80.83246,35.23175]],[[-80.90826,35.18214],[-80.90876,35.18214],[-80.90891,35.18225],[-80.90937,35.18178],[-80.90955,35.18191]],[[-80.91129,35.18063],[-80.91074,35.18104],[-80.9104,35.18113],[-80.91025,35.18106],[-80.91026,35.18085],[-80.91087,35.18075],[-80.91149,35.18037],[-80.91182,35.18031]],[[-80.77405,35.24578],[-80.77391,35.24591],[-80.77337,35.24564]],[[-80.77238,35.24497],[-80.77212,35.24546],[-80.77241,35.24575],[-80.77297,35.24595]],[[-80.83741,35.20304],[-80.83716,35.20378]],[[-80.86763,35.24051],[-80.86786,35.24123],[-80.86817,35.24167]],[[-80.86817,35.24167],[-80.86824,35.24183],[-80.86864,35.24198]],[[-80.84751,35.22241],[-80.84731,35.22255]],[[-80.84071,35.22876],[-80.84075,35.22876]],[[-80.9124,35.20156],[-80.91202,35.20205]],[[-80.88599,35.27338],[-80.88539,35.2728]],[[-80.7917,35.24696],[-80.79334,35.24668]],[[-80.78062,35.27658],[-80.78159,35.27717],[-80.78188,35.27767],[-80.78247,35.27819]],[[-80.77615,35.26263],[-80.77589,35.26218]],[[-80.77647,35.26315],[-80.77618,35.2627]],[[-80.87546,35.19841],[-80.87629,35.19886]],[[-80.8097,35.24248],[-80.80972,35.24239]],[[-80.9198,35.21371],[-80.91985,35.21346],[-80.91961,35.213],[-80.91942,35.21314],[-80.91905,35.21302],[-80.9186,35.21336],[-80.91849,35.21318],[-80.91872,35.21259],[-80.91904,35.2124],[-80.91924,35.21189],[-80.91954,35.21198],[-80.91919,35.21227],[-80.91927,35.21234],[-80.91966,35.21225],[-80.91992,35.21205],[-80.91998,35.21178],[-80.91976,35.21151],[-80.91914,35.21166],[-80.91854,35.2116],[-80.91812,35.21177],[-80.91813,35.21225],[-80.91782,35.21228],[-80.91758,35.21251],[-80.91731,35.21253],[-80.91714,35.2123],[-80.91664,35.21221],[-80.9163,35.21271],[-80.91638,35.21283],[-80.91685,35.21251],[-80.91755,35.21292],[-80.9186,35.21195],[-80.91881,35.2119],[-80.91878,35.21221],[-80.91828,35.2128],[-80.91807,35.21287],[-80.91795,35.21307],[-80.9176,35.21312],[-80.91735,35.21337],[-80.9171,35.21396],[-80.91769,35.21444],[-80.91796,35.21431],[-80.91781,35.21407],[-80.91813,35.21413],[-80.91824,35.2143],[-80.91843,35.21416],[-80.9182,35.21391],[-80.91771,35.21399],[-80.91746,35.21389],[-80.91751,35.21379],[-80.91793,35.21374],[-80.91791,35.21361],[-80.91763,35.21357],[-80.91775,35.21342],[-80.91804,35.21339],[-80.91821,35.21358],[-80.9182,35.21384],[-80.91841,35.21376],[-80.91885,35.21409],[-80.91925,35.2139],[-80.919,35.21361],[-80.91948,35.2135],[-80.9198,35.21371]],[[-80.91752,35.21131],[-80.91757,35.21141],[-80.91715,35.21184],[-80.91737,35.21197],[-80.91768,35.21181]],[[-80.91959,35.21119],[-80.92036,35.21101]],[[-80.91988,35.21161],[-80.91992,35.21144]],[[-80.91793,35.21175],[-80.91792,35.21152],[-80.91959,35.21119],[-80.91989,35.21123],[-80.91992,35.21144]],[[-80.91992,35.21144],[-80.91976,35.21151]],[[-80.91749,35.21143],[-80.91732,35.2119],[-80.91786,35.21179]],[[-80.91786,35.21179],[-80.91793,35.21175]],[[-80.90824,35.21546],[-80.90819,35.21545]],[[-80.82901,35.21956],[-80.8292,35.2196]],[[-80.78415,35.26039],[-80.78405,35.26039]],[[-80.78152,35.26027],[-80.78141,35.26027]],[[-80.77429,35.26469],[-80.77426,35.26471]],[[-80.77691,35.2649],[-80.77582,35.26409]],[[-80.77716,35.26484],[-80.77691,35.2649]],[[-80.77725,35.26482],[-80.77716,35.26484]],[[-80.78085,35.26556],[-80.78043,35.26571],[-80.77886,35.26565],[-80.77815,35.26533],[-80.7778,35.26498],[-80.77725,35.26482]],[[-80.78085,35.26556],[-80.78092,35.26552]],[[-80.78092,35.26552],[-80.78095,35.26551]],[[-80.77874,35.26605],[-80.77884,35.2662],[-80.77916,35.26626],[-80.77921,35.26647],[-80.77868,35.26658],[-80.77829,35.26707]],[[-80.77886,35.26565],[-80.77884,35.26569]],[[-80.77884,35.26569],[-80.77874,35.26605]],[[-80.79346,35.25245],[-80.79343,35.25228]],[[-80.78144,35.26033],[-80.78137,35.26035]],[[-80.76898,35.2658],[-80.76894,35.26581]],[[-80.84297,35.2304],[-80.84307,35.23046]],[[-80.84298,35.2306],[-80.84286,35.23068]],[[-80.84298,35.2306],[-80.84307,35.23046]],[[-80.84302,35.23036],[-80.84284,35.23048],[-80.8426,35.23026]],[[-80.84243,35.23017],[-80.84251,35.23017]],[[-80.8426,35.23026],[-80.84251,35.23017]]]}},{"type":"Feature","properties":{"id":"trail-cycleway-Irwin Creek Greenway","name":"Irwin Creek Greenway","kind":"trail","policy":"leashed","note":"Mecklenburg County greenways — leashed dogs allowed; designated dog parks are the off-leash exception.","source_url":"https://parkandrec.mecknc.gov/Places-to-Visit/Dog-Parks","venue":"little-sugar-creek-greenway","acres":null,"miles":2.4,"approx":false,"osm":null},"geometry":{"type":"MultiLineString","coordinates":[[[-80.8566,35.23331],[-80.8563,35.23384],[-80.85644,35.23398],[-80.85638,35.23407],[-80.85608,35.23408],[-80.85583,35.23445],[-80.85573,35.2344]],[[-80.85679,35.23309],[-80.8566,35.23331]],[[-80.8543,35.2358],[-80.85384,35.23618],[-80.85339,35.23692]],[[-80.85453,35.23552],[-80.8543,35.2358]],[[-80.85542,35.23432],[-80.85511,35.23459],[-80.85453,35.23552]],[[-80.85542,35.23432],[-80.85549,35.23423],[-80.85542,35.23432]],[[-80.85573,35.2344],[-80.85551,35.23429]],[[-80.8594,35.23113],[-80.859,35.23108],[-80.85816,35.23156],[-80.85733,35.23264],[-80.85679,35.23309]],[[-80.85313,35.23719],[-80.85261,35.23803],[-80.85229,35.23805],[-80.85221,35.2379]],[[-80.85339,35.23692],[-80.85313,35.23719]],[[-80.89364,35.20599],[-80.89278,35.20558],[-80.89255,35.20562],[-80.89232,35.20587]],[[-80.89148,35.20674],[-80.89146,35.20676]],[[-80.89146,35.20676],[-80.89074,35.20756]],[[-80.89074,35.20756],[-80.89064,35.20767]],[[-80.89064,35.20767],[-80.89008,35.2083],[-80.88948,35.20865]],[[-80.88948,35.20865],[-80.88943,35.20869]],[[-80.88943,35.20869],[-80.88882,35.20899],[-80.88843,35.20851],[-80.88769,35.20836]],[[-80.88769,35.20836],[-80.88766,35.20835]],[[-80.88766,35.20835],[-80.88676,35.20815],[-80.8862,35.20734],[-80.88554,35.20705],[-80.88481,35.20704],[-80.88426,35.20724]],[[-80.88426,35.20724],[-80.8842,35.20727]],[[-80.8842,35.20727],[-80.88355,35.20789],[-80.88319,35.20807]],[[-80.88319,35.20807],[-80.88311,35.2081]],[[-80.88311,35.2081],[-80.88292,35.2082]],[[-80.88292,35.2082],[-80.88289,35.20823]],[[-80.88289,35.20823],[-80.88244,35.20871],[-80.88201,35.20892],[-80.88071,35.20997],[-80.87977,35.21123],[-80.87875,35.21188]],[[-80.87875,35.21188],[-80.87872,35.2119]],[[-80.87872,35.2119],[-80.87826,35.21233],[-80.87687,35.21318],[-80.87629,35.21391]],[[-80.87629,35.21391],[-80.87613,35.21394]],[[-80.87613,35.21394],[-80.87464,35.21449],[-80.87382,35.21466],[-80.87339,35.21497],[-80.87293,35.2159],[-80.87289,35.21667],[-80.873,35.21719],[-80.87332,35.21746]],[[-80.8923,35.20589],[-80.89148,35.20674]],[[-80.89232,35.20587],[-80.8923,35.20589]]]}},{"type":"Feature","properties":{"id":"trail-cycleway-Little Hope Creek Greenway","name":"Little Hope Creek Greenway","kind":"trail","policy":"leashed","note":"Mecklenburg County greenways — leashed dogs allowed; designated dog parks are the off-leash exception.","source_url":"https://parkandrec.mecknc.gov/Places-to-Visit/Dog-Parks","venue":"little-sugar-creek-greenway","acres":null,"miles":0.9,"approx":false,"osm":null},"geometry":{"type":"MultiLineString","coordinates":[[[-80.85352,35.15856],[-80.85381,35.15925],[-80.85519,35.15979],[-80.85529,35.1601],[-80.85589,35.16072],[-80.85613,35.16069],[-80.85651,35.16011],[-80.85677,35.16011]],[[-80.85193,35.15704],[-80.85323,35.15853]],[[-80.85323,35.15853],[-80.85352,35.15856]],[[-80.85898,35.1605],[-80.86005,35.1609],[-80.86076,35.16093],[-80.86092,35.16113],[-80.86057,35.16144],[-80.86061,35.16185],[-80.86016,35.16244],[-80.85938,35.16304],[-80.85885,35.16313],[-80.85879,35.16331]],[[-80.85684,35.16014],[-80.85712,35.16024],[-80.85759,35.16001],[-80.85788,35.16016]],[[-80.85677,35.16011],[-80.85684,35.16014]],[[-80.85823,35.16028],[-80.85874,35.16044]],[[-80.85874,35.16044],[-80.85887,35.16048]],[[-80.85802,35.16021],[-80.85815,35.16025]],[[-80.85815,35.16025],[-80.85823,35.16028]],[[-80.85788,35.16016],[-80.85802,35.16021]],[[-80.85887,35.16048],[-80.85898,35.1605]]]}},{"type":"Feature","properties":{"id":"trail-cycleway-Little Sugar Creek Greenway","name":"Little Sugar Creek Greenway","kind":"trail","policy":"leashed","note":"Mecklenburg County greenways — leashed dogs allowed; designated dog parks are the off-leash exception.","source_url":"https://parkandrec.mecknc.gov/Places-to-Visit/Dog-Parks","venue":"little-sugar-creek-greenway","acres":null,"miles":9.0,"approx":false,"osm":null},"geometry":{"type":"MultiLineString","coordinates":[[[-80.82676,35.22172],[-80.82697,35.22219],[-80.82737,35.22247],[-80.82809,35.22354],[-80.82822,35.22447]],[[-80.85688,35.1516],[-80.85679,35.15174],[-80.85603,35.15196],[-80.85547,35.15234],[-80.85536,35.15261],[-80.85552,35.15326],[-80.8551,35.15392],[-80.8545,35.15466],[-80.85378,35.15517],[-80.85365,35.1556],[-80.85313,35.1559],[-80.85262,35.15602]],[[-80.85143,35.1575],[-80.85116,35.15755]],[[-80.85021,35.15979],[-80.85006,35.15992]],[[-80.84755,35.16443],[-80.84739,35.16452]],[[-80.84739,35.16452],[-80.84646,35.16499]],[[-80.84646,35.16499],[-80.84624,35.16506]],[[-80.84624,35.16506],[-80.8449,35.16664]],[[-80.8449,35.16664],[-80.84447,35.16703],[-80.84441,35.16724],[-80.84516,35.16779]],[[-80.84516,35.16779],[-80.84656,35.16813],[-80.84687,35.16892],[-80.8468,35.16912],[-80.84643,35.16932],[-80.84555,35.17069]],[[-80.84539,35.17097],[-80.84532,35.17122]],[[-80.84555,35.17069],[-80.84539,35.17097]],[[-80.84532,35.17122],[-80.84538,35.17141]],[[-80.84538,35.17141],[-80.84654,35.17237],[-80.84643,35.17296],[-80.8461,35.17302],[-80.84596,35.17318],[-80.84603,35.1736]],[[-80.84645,35.17896],[-80.84685,35.17766],[-80.8466,35.1774]],[[-80.8466,35.1774],[-80.84638,35.17735]],[[-80.84638,35.17735],[-80.84604,35.17716],[-80.84626,35.17605],[-80.84614,35.17538],[-80.84633,35.1749],[-80.84613,35.17448],[-80.84603,35.1736]],[[-80.84537,35.17875],[-80.84536,35.17884]],[[-80.84006,35.19475],[-80.84054,35.1942],[-80.84077,35.19342],[-80.84147,35.1928],[-80.84167,35.19225],[-80.84276,35.1913],[-80.84288,35.19067],[-80.84333,35.1903],[-80.84353,35.18942],[-80.84425,35.18832]],[[-80.83889,35.19604],[-80.84029,35.19487]],[[-80.84006,35.19475],[-80.84029,35.19487]],[[-80.8381,35.19694],[-80.838,35.19697]],[[-80.838,35.19697],[-80.83778,35.19754],[-80.83779,35.19832],[-80.83742,35.20057]],[[-80.83707,35.20456],[-80.83756,35.20065]],[[-80.83756,35.20065],[-80.83742,35.20057]],[[-80.83643,35.20635],[-80.83682,35.20573],[-80.83694,35.20467]],[[-80.83698,35.20459],[-80.83707,35.20456]],[[-80.83618,35.20804],[-80.83622,35.2082],[-80.836,35.20822],[-80.83598,35.20808],[-80.83618,35.20804]],[[-80.83479,35.21633],[-80.83528,35.21563],[-80.83618,35.21304],[-80.83639,35.21281],[-80.8364,35.21187]],[[-80.82904,35.22029],[-80.82953,35.22068],[-80.82987,35.22056],[-80.83071,35.21979],[-80.83081,35.21917],[-80.83213,35.21835]],[[-80.83231,35.2182],[-80.83213,35.21835]],[[-80.829,35.2203],[-80.8288,35.22041]],[[-80.82867,35.22038],[-80.82808,35.22057]],[[-80.82808,35.22057],[-80.82619,35.22096]],[[-80.82816,35.22455],[-80.82814,35.22458]],[[-80.82822,35.22449],[-80.82822,35.22447]],[[-80.82766,35.22572],[-80.82758,35.22637],[-80.82707,35.22714],[-80.82579,35.22722],[-80.82558,35.22737]],[[-80.82558,35.22737],[-80.82551,35.2276]],[[-80.82551,35.2276],[-80.82475,35.22814]],[[-80.82475,35.22814],[-80.82455,35.22825]],[[-80.82455,35.22825],[-80.82415,35.22846],[-80.82379,35.22888],[-80.82394,35.22942]],[[-80.82394,35.22942],[-80.82392,35.22949]],[[-80.8218,35.23362],[-80.8227,35.23299],[-80.82295,35.23261],[-80.82287,35.23236],[-80.82209,35.23165],[-80.82217,35.23031]],[[-80.82217,35.23031],[-80.82247,35.23033]],[[-80.82247,35.23033],[-80.82282,35.23043],[-80.8239,35.22968],[-80.82392,35.22949]],[[-80.81647,35.23846],[-80.81748,35.23767],[-80.81802,35.23651],[-80.81908,35.23605],[-80.81945,35.23571]],[[-80.83231,35.2182],[-80.83238,35.218],[-80.83278,35.21767],[-80.8335,35.21736]],[[-80.8335,35.21736],[-80.83385,35.21713]],[[-80.82081,35.23422],[-80.82134,35.234],[-80.82173,35.23366]],[[-80.82003,35.23505],[-80.8202,35.23488]],[[-80.83385,35.21713],[-80.83416,35.21676],[-80.83456,35.21655]],[[-80.83456,35.21655],[-80.83479,35.21633]],[[-80.82619,35.22096],[-80.82595,35.22104],[-80.82621,35.22192]],[[-80.82816,35.22466],[-80.82779,35.22566],[-80.82766,35.22572]],[[-80.8281,35.22463],[-80.82809,35.22464]],[[-80.81491,35.24077],[-80.81457,35.24128],[-80.81454,35.2418]],[[-80.81455,35.24184],[-80.81487,35.24283]],[[-80.81454,35.2418],[-80.81455,35.24184]],[[-80.81542,35.23929],[-80.81641,35.2385]],[[-80.81607,35.23987],[-80.81554,35.23939]],[[-80.829,35.2203],[-80.82904,35.22029]],[[-80.82869,35.22039],[-80.82867,35.22038]],[[-80.8287,35.22041],[-80.82869,35.22039]],[[-80.8288,35.22041],[-80.8287,35.22041]],[[-80.83629,35.20924],[-80.83609,35.20826]],[[-80.83637,35.20933],[-80.83629,35.20924]],[[-80.85063,35.15938],[-80.85076,35.15915],[-80.85069,35.159]],[[-80.85069,35.159],[-80.85085,35.15799],[-80.85103,35.15759],[-80.85116,35.15755]],[[-80.85063,35.15938],[-80.85048,35.15964],[-80.85021,35.15979]],[[-80.84853,35.16017],[-80.84789,35.1623],[-80.84751,35.16274],[-80.84749,35.16301],[-80.84784,35.16398],[-80.84755,35.16443]],[[-80.81333,35.24811],[-80.81407,35.24849]],[[-80.81302,35.24795],[-80.81333,35.24811]],[[-80.81293,35.2479],[-80.81302,35.24795]],[[-80.8202,35.23488],[-80.82081,35.23422]],[[-80.81945,35.23571],[-80.82003,35.23505]],[[-80.85262,35.15602],[-80.85228,35.15628],[-80.85194,35.15703]],[[-80.85194,35.15703],[-80.85165,35.15715],[-80.8516,35.15741],[-80.85143,35.1575]],[[-80.85006,35.15992],[-80.84853,35.16017]],[[-80.8381,35.19694],[-80.83835,35.19638]],[[-80.8361,35.20802],[-80.83637,35.2064]],[[-80.84609,35.17891],[-80.84537,35.17875]],[[-80.84645,35.17896],[-80.84629,35.17895]],[[-80.84629,35.17895],[-80.84609,35.17891]],[[-80.81177,35.24247],[-80.81319,35.24278],[-80.81421,35.24362]],[[-80.81101,35.24887],[-80.81217,35.24865],[-80.81296,35.24791]],[[-80.81468,35.24789],[-80.81415,35.24843]],[[-80.82782,35.22534],[-80.82766,35.22572]],[[-80.79363,35.25242],[-80.79261,35.25257],[-80.79206,35.25299],[-80.79153,35.25313],[-80.7882,35.25357],[-80.78823,35.25418]],[[-80.81488,35.24286],[-80.81511,35.24296]],[[-80.83695,35.2046],[-80.83698,35.20459]],[[-80.84478,35.18194],[-80.84505,35.18166],[-80.84515,35.1813],[-80.84536,35.17884]],[[-80.81597,35.23994],[-80.81497,35.24072]],[[-80.81497,35.24072],[-80.81491,35.24077]],[[-80.84425,35.18832],[-80.8443,35.18816],[-80.84386,35.18731],[-80.84442,35.18663],[-80.84441,35.18648]],[[-80.83637,35.2064],[-80.83643,35.20635]],[[-80.83854,35.19627],[-80.83889,35.19604]],[[-80.83835,35.19638],[-80.83854,35.19627]],[[-80.8066,35.25045],[-80.80628,35.25051]],[[-80.8061,35.25052],[-80.80522,35.25076],[-80.80404,35.25069],[-80.80358,35.25079]],[[-80.83656,35.21126],[-80.83667,35.21057],[-80.83637,35.20933]],[[-80.8364,35.21187],[-80.83656,35.21126]],[[-80.79881,35.25274],[-80.7967,35.25314]],[[-80.79895,35.25271],[-80.79881,35.25274]],[[-80.80628,35.25051],[-80.8061,35.25052]],[[-80.81487,35.24283],[-80.81481,35.24319],[-80.81439,35.24347]],[[-80.78808,35.25815],[-80.78866,35.2581],[-80.78877,35.25618]],[[-80.78877,35.25618],[-80.78873,35.25603],[-80.78845,35.25588]],[[-80.78817,35.25431],[-80.78821,35.25458],[-80.78842,35.25469]],[[-80.78823,35.25418],[-80.78817,35.25431]]]}},{"type":"Feature","properties":{"id":"trail-cycleway-Oakhurst and Amity Gardens Multiuse Path","name":"Oakhurst and Amity Gardens Multiuse Path","kind":"trail","policy":"leashed","note":"Mecklenburg County greenways — leashed dogs allowed; designated dog parks are the off-leash exception.","source_url":"https://parkandrec.mecknc.gov/Places-to-Visit/Dog-Parks","venue":"little-sugar-creek-greenway","acres":null,"miles":0.2,"approx":false,"osm":null},"geometry":{"type":"MultiLineString","coordinates":[[[-80.77659,35.19625],[-80.77666,35.1964]],[[-80.77666,35.1964],[-80.77671,35.19667]],[[-80.77671,35.19667],[-80.77637,35.19744]],[[-80.77637,35.19744],[-80.77617,35.19758]],[[-80.77617,35.19758],[-80.7761,35.19775]],[[-80.77718,35.19683],[-80.77705,35.19687],[-80.77697,35.19732],[-80.77683,35.19691],[-80.77666,35.19735],[-80.77646,35.19736]]]}},{"type":"Feature","properties":{"id":"trail-cycleway-Renaissance Park Mountain Bike Trail","name":"Renaissance Park Mountain Bike Trail","kind":"trail","policy":"leashed","note":"Mecklenburg County greenways — leashed dogs allowed; designated dog parks are the off-leash exception.","source_url":"https://parkandrec.mecknc.gov/Places-to-Visit/Dog-Parks","venue":"little-sugar-creek-greenway","acres":null,"miles":3.7,"approx":false,"osm":null},"geometry":{"type":"MultiLineString","coordinates":[[[-80.90776,35.1813],[-80.90781,35.18157],[-80.90823,35.18176],[-80.90821,35.18222],[-80.90842,35.18257],[-80.90936,35.18288],[-80.90948,35.18266],[-80.9091,35.18239],[-80.90925,35.18206],[-80.91086,35.18131],[-80.9109,35.18105],[-80.91128,35.18079],[-80.91142,35.1805],[-80.91291,35.18001],[-80.91298,35.17972],[-80.91281,35.17955],[-80.91258,35.17961],[-80.9127,35.1798],[-80.91166,35.18012],[-80.91228,35.18006],[-80.9125,35.17987],[-80.91259,35.17989],[-80.91242,35.1801],[-80.91161,35.18027],[-80.91121,35.18018],[-80.91127,35.18037],[-80.91098,35.18062],[-80.9103,35.18052],[-80.91047,35.18075],[-80.91018,35.18076],[-80.91008,35.18089],[-80.90971,35.18098],[-80.90971,35.18117],[-80.90944,35.18131],[-80.90946,35.18157],[-80.9097,35.18168],[-80.90933,35.18179],[-80.90908,35.18147]],[[-80.90532,35.17845],[-80.90508,35.17822],[-80.9052,35.17803],[-80.90716,35.17766],[-80.90748,35.17732],[-80.908,35.17705],[-80.90785,35.17589],[-80.90821,35.17568],[-80.90864,35.17487],[-80.90914,35.17472],[-80.90907,35.17414],[-80.90857,35.17384],[-80.90843,35.17338],[-80.90808,35.17328],[-80.90798,35.1731],[-80.90761,35.17297],[-80.90685,35.17236],[-80.90638,35.17222],[-80.90578,35.17238],[-80.9053,35.1731],[-80.90447,35.17302],[-80.90378,35.17324],[-80.90332,35.17365],[-80.9036,35.17422],[-80.90341,35.1742],[-80.90346,35.17441],[-80.90405,35.17424],[-80.90452,35.17432],[-80.90476,35.17448],[-80.90471,35.1746],[-80.90511,35.1747],[-80.90518,35.17483],[-80.90473,35.17497],[-80.90456,35.17466],[-80.90434,35.17465],[-80.90464,35.17519],[-80.90456,35.17569],[-80.90438,35.1759],[-80.90449,35.17622],[-80.90431,35.17622],[-80.90434,35.17638],[-80.9055,35.17622],[-80.90519,35.17613],[-80.9057,35.1759],[-80.90562,35.17563],[-80.90496,35.17521],[-80.90535,35.17504],[-80.90535,35.17476],[-80.90556,35.17454],[-80.90543,35.17421],[-80.90484,35.17433],[-80.90416,35.17413],[-80.90376,35.17417],[-80.90372,35.17407],[-80.90405,35.17385],[-80.9045,35.17406],[-80.90457,35.17366],[-80.90476,35.17373],[-80.90509,35.1736],[-80.9052,35.17381],[-80.90466,35.17404],[-80.9049,35.17418],[-80.90556,35.17412],[-80.90534,35.17371],[-80.90608,35.17359],[-80.90624,35.17397],[-80.90588,35.17398],[-80.90592,35.17411],[-80.90565,35.17427],[-80.90574,35.17458],[-80.90557,35.17496],[-80.90589,35.17464],[-80.90579,35.17433],[-80.90601,35.1744],[-80.90585,35.17505],[-80.90616,35.17474],[-80.90621,35.17422],[-80.90658,35.17425],[-80.90634,35.17455],[-80.90621,35.17511],[-80.90521,35.17513],[-80.90545,35.17542],[-80.90581,35.17548],[-80.90598,35.17568],[-80.90601,35.17587],[-80.90577,35.17636],[-80.90536,35.17648],[-80.90501,35.17645],[-80.90469,35.17661],[-80.90409,35.17654],[-80.90348,35.17682]],[[-80.90344,35.17691],[-80.90332,35.17718],[-80.90372,35.17751]],[[-80.90348,35.17682],[-80.90344,35.17691]]]}},{"type":"Feature","properties":{"id":"trail-cycleway-Stewart Creek Greenway","name":"Stewart Creek Greenway","kind":"trail","policy":"leashed","note":"Mecklenburg County greenways — leashed dogs allowed; designated dog parks are the off-leash exception.","source_url":"https://parkandrec.mecknc.gov/Places-to-Visit/Dog-Parks","venue":"little-sugar-creek-greenway","acres":null,"miles":3.0,"approx":false,"osm":null},"geometry":{"type":"MultiLineString","coordinates":[[[-80.86861,35.23144],[-80.86883,35.23165],[-80.8687,35.23326]],[[-80.86814,35.23035],[-80.86801,35.23029],[-80.86793,35.2304],[-80.86806,35.23045],[-80.86814,35.23035]],[[-80.86834,35.2306],[-80.86802,35.23048],[-80.86787,35.23073],[-80.86821,35.23085],[-80.86834,35.2306]],[[-80.86806,35.23047],[-80.86806,35.23045]],[[-80.86785,35.23067],[-80.86768,35.23072]],[[-80.86451,35.23508],[-80.86455,35.23476],[-80.86497,35.23497],[-80.86536,35.235],[-80.86611,35.23471],[-80.86816,35.23439],[-80.86851,35.23405],[-80.8687,35.23326]],[[-80.86672,35.2386],[-80.8662,35.23803],[-80.86456,35.23534],[-80.86451,35.23508]],[[-80.86672,35.2386],[-80.86676,35.23875]],[[-80.86781,35.2403],[-80.86676,35.23875]],[[-80.86798,35.23018],[-80.86801,35.23029]],[[-80.86868,35.24772],[-80.86654,35.25065]],[[-80.86831,35.23055],[-80.86852,35.23052]],[[-80.86833,35.24102],[-80.86897,35.2415],[-80.86936,35.24154],[-80.86973,35.24193],[-80.86979,35.24422],[-80.87023,35.24443],[-80.87052,35.2454],[-80.87108,35.24592],[-80.87108,35.24624],[-80.87055,35.24662],[-80.87091,35.24707]],[[-80.87069,35.24643],[-80.87,35.24638],[-80.86983,35.24613],[-80.8699,35.24594],[-80.87068,35.24556]],[[-80.86996,35.24765],[-80.86994,35.24763]],[[-80.8766,35.24809],[-80.87671,35.24826],[-80.87764,35.2484],[-80.88075,35.24945],[-80.88132,35.25014],[-80.88158,35.25153]],[[-80.87003,35.24771],[-80.87139,35.24898],[-80.87246,35.24911]],[[-80.87254,35.24909],[-80.87252,35.24898]],[[-80.87246,35.24887],[-80.87245,35.24863],[-80.87364,35.24754],[-80.87521,35.24739],[-80.87635,35.24779],[-80.87663,35.24778],[-80.87666,35.24788]],[[-80.87666,35.24788],[-80.8766,35.24809]],[[-80.88161,35.25166],[-80.88201,35.25297],[-80.88152,35.25336]],[[-80.88158,35.25153],[-80.88161,35.25166]],[[-80.86849,35.23138],[-80.86861,35.23144]],[[-80.86842,35.23135],[-80.86849,35.23138]],[[-80.86781,35.2403],[-80.86786,35.24038]],[[-80.86833,35.24102],[-80.86785,35.24072]],[[-80.86785,35.24072],[-80.86771,35.24047]]]}},{"type":"Feature","properties":{"id":"trail-cycleway-Taggart Creek Greenway","name":"Taggart Creek Greenway","kind":"trail","policy":"leashed","note":"Mecklenburg County greenways — leashed dogs allowed; designated dog parks are the off-leash exception.","source_url":"https://parkandrec.mecknc.gov/Places-to-Visit/Dog-Parks","venue":"little-sugar-creek-greenway","acres":null,"miles":0.4,"approx":false,"osm":null},"geometry":{"type":"MultiLineString","coordinates":[[[-80.92131,35.20636],[-80.92301,35.20998],[-80.9228,35.21033],[-80.92232,35.21043]],[[-80.92078,35.21066],[-80.92019,35.2107]],[[-80.92084,35.21063],[-80.92078,35.21066]],[[-80.92225,35.2104],[-80.92139,35.21043],[-80.92084,35.21063]],[[-80.92232,35.21043],[-80.92225,35.2104]]]}},{"type":"Feature","properties":{"id":"trail-cycleway-Tennis Court Trail","name":"Tennis Court Trail","kind":"trail","policy":"leashed","note":"Mecklenburg County greenways — leashed dogs allowed; designated dog parks are the off-leash exception.","source_url":"https://parkandrec.mecknc.gov/Places-to-Visit/Dog-Parks","venue":"little-sugar-creek-greenway","acres":null,"miles":0.1,"approx":false,"osm":null},"geometry":{"type":"MultiLineString","coordinates":[[[-80.90676,35.17974],[-80.9057,35.17919],[-80.90536,35.1786],[-80.90538,35.17837]]]}},{"type":"Feature","properties":{"id":"trail-cycleway-The Loop","name":"The Loop","kind":"trail","policy":"leashed","note":"Mecklenburg County greenways — leashed dogs allowed; designated dog parks are the off-leash exception.","source_url":"https://parkandrec.mecknc.gov/Places-to-Visit/Dog-Parks","venue":"little-sugar-creek-greenway","acres":null,"miles":0.1,"approx":false,"osm":null},"geometry":{"type":"MultiLineString","coordinates":[[[-80.82918,35.15682],[-80.82746,35.15548]]]}},{"type":"Feature","properties":{"id":"trail-cycleway-Toby Creek Greenway","name":"Toby Creek Greenway","kind":"trail","policy":"leashed","note":"Mecklenburg County greenways — leashed dogs allowed; designated dog parks are the off-leash exception.","source_url":"https://parkandrec.mecknc.gov/Places-to-Visit/Dog-Parks","venue":"little-sugar-creek-greenway","acres":null,"miles":1.1,"approx":false,"osm":null},"geometry":{"type":"MultiLineString","coordinates":[[[-80.78039,35.26089],[-80.77989,35.26132],[-80.77874,35.26173]],[[-80.76942,35.266],[-80.77024,35.26646]],[[-80.78405,35.26039],[-80.78152,35.26027]],[[-80.77858,35.26178],[-80.77836,35.26205],[-80.77666,35.26311]],[[-80.77666,35.26311],[-80.77656,35.26318]],[[-80.77874,35.26173],[-80.77858,35.26178]],[[-80.78804,35.25839],[-80.78771,35.25838]],[[-80.78771,35.25838],[-80.7877,35.25935]],[[-80.7877,35.25935],[-80.78762,35.25935]],[[-80.78762,35.25935],[-80.78702,35.25941],[-80.78655,35.25964],[-80.78569,35.25969],[-80.78555,35.26015],[-80.78537,35.26027],[-80.78441,35.26024],[-80.78425,35.26033]],[[-80.7842,35.26039],[-80.78415,35.26039]],[[-80.78134,35.26051],[-80.78126,35.26077],[-80.78073,35.26078]],[[-80.78073,35.26078],[-80.78039,35.26089]],[[-80.77656,35.26318],[-80.77617,35.26391]],[[-80.77617,35.26391],[-80.77588,35.26405]],[[-80.77588,35.26405],[-80.77563,35.2641],[-80.77524,35.26388],[-80.77495,35.26408]],[[-80.77495,35.26408],[-80.77471,35.2643]],[[-80.77471,35.2643],[-80.77429,35.26469]],[[-80.78141,35.26027],[-80.78134,35.26051]],[[-80.78425,35.26033],[-80.78409,35.26045]],[[-80.78771,35.25838],[-80.78764,35.25837]]]}},{"type":"Feature","properties":{"id":"trail-cycleway-Tyvola Road Connector","name":"Tyvola Road Connector","kind":"trail","policy":"leashed","note":"Mecklenburg County greenways — leashed dogs allowed; designated dog parks are the off-leash exception.","source_url":"https://parkandrec.mecknc.gov/Places-to-Visit/Dog-Parks","venue":"little-sugar-creek-greenway","acres":null,"miles":0.0,"approx":false,"osm":null},"geometry":{"type":"MultiLineString","coordinates":[[[-80.85261,35.15676],[-80.85215,35.15729]]]}},{"type":"Feature","properties":{"id":"trail-cycleway-Tyvola Road Trailhead","name":"Tyvola Road Trailhead","kind":"trail","policy":"leashed","note":"Mecklenburg County greenways — leashed dogs allowed; designated dog parks are the off-leash exception.","source_url":"https://parkandrec.mecknc.gov/Places-to-Visit/Dog-Parks","venue":"little-sugar-creek-greenway","acres":null,"miles":0.4,"approx":false,"osm":null},"geometry":{"type":"MultiLineString","coordinates":[[[-80.85404,35.15495],[-80.85408,35.15543],[-80.85351,35.15602],[-80.85336,35.15645],[-80.85347,35.15663],[-80.85407,35.15672],[-80.8545,35.15717],[-80.85564,35.15765],[-80.85646,35.15769],[-80.85694,35.15797]]]}},{"type":"Feature","properties":{"id":"trail-cycleway-Uptown CycleLink","name":"Uptown CycleLink","kind":"trail","policy":"leashed","note":"Mecklenburg County greenways — leashed dogs allowed; designated dog parks are the off-leash exception.","source_url":"https://parkandrec.mecknc.gov/Places-to-Visit/Dog-Parks","venue":"little-sugar-creek-greenway","acres":null,"miles":3.6,"approx":false,"osm":null},"geometry":{"type":"MultiLineString","coordinates":[[[-80.83686,35.2254],[-80.83768,35.22614]],[[-80.83379,35.22279],[-80.83284,35.22206],[-80.8319,35.2227]],[[-80.82959,35.22082],[-80.82941,35.22065]],[[-80.83048,35.22156],[-80.82959,35.22082]],[[-80.84489,35.2322],[-80.84688,35.23362],[-80.84738,35.23373],[-80.84827,35.23365],[-80.84904,35.23401]],[[-80.83785,35.22629],[-80.83964,35.2278]],[[-80.83174,35.22259],[-80.83048,35.22156]],[[-80.83739,35.21071],[-80.83769,35.21084],[-80.83854,35.21175],[-80.83923,35.21223],[-80.83918,35.21334],[-80.8394,35.21363],[-80.83963,35.21365]],[[-80.82915,35.22514],[-80.82878,35.22591],[-80.82874,35.22628],[-80.82901,35.22692],[-80.82949,35.22741]],[[-80.83236,35.22316],[-80.8319,35.22272]],[[-80.8319,35.22272],[-80.83171,35.22283]],[[-80.83379,35.22279],[-80.83388,35.22287]],[[-80.83388,35.22287],[-80.83572,35.22442]],[[-80.83572,35.22442],[-80.8359,35.22457]],[[-80.8319,35.2227],[-80.8319,35.22272]],[[-80.84098,35.21914],[-80.84198,35.22003]],[[-80.84183,35.22017],[-80.84028,35.22124]],[[-80.84016,35.22133],[-80.83931,35.222]],[[-80.85342,35.23731],[-80.85355,35.23738]],[[-80.85355,35.23738],[-80.85366,35.23742]],[[-80.85263,35.23662],[-80.85342,35.23731]],[[-80.85251,35.23652],[-80.85263,35.23662]],[[-80.84289,35.23066],[-80.84473,35.23215]],[[-80.84473,35.23215],[-80.84489,35.2322]],[[-80.84196,35.22007],[-80.84183,35.22017]],[[-80.83988,35.21812],[-80.84084,35.21902]],[[-80.84084,35.21902],[-80.84098,35.21914]],[[-80.8359,35.22457],[-80.83672,35.22527]],[[-80.83686,35.2254],[-80.83672,35.22527]],[[-80.83768,35.22614],[-80.83785,35.22629]],[[-80.83972,35.2279],[-80.83964,35.2278]],[[-80.84088,35.22887],[-80.84179,35.22967]],[[-80.84088,35.22887],[-80.84075,35.22876]],[[-80.84195,35.22982],[-80.84179,35.22967]],[[-80.83171,35.22283],[-80.82969,35.22425],[-80.82915,35.22514]],[[-80.85155,35.23578],[-80.85251,35.23652]],[[-80.8487,35.22161],[-80.84751,35.22241]],[[-80.84731,35.22255],[-80.84529,35.22387],[-80.84352,35.22229]],[[-80.8492,35.23413],[-80.85137,35.23565]],[[-80.84904,35.23401],[-80.8492,35.23413]],[[-80.85137,35.23565],[-80.85155,35.23578]],[[-80.84199,35.22004],[-80.84196,35.22007]],[[-80.84268,35.221],[-80.84209,35.22013]],[[-80.84275,35.22124],[-80.84268,35.221]],[[-80.84209,35.22013],[-80.84198,35.22003]],[[-80.84334,35.22217],[-80.84291,35.22167],[-80.84275,35.22124]],[[-80.84352,35.22229],[-80.84334,35.22217]],[[-80.8395,35.21368],[-80.84018,35.21378],[-80.84114,35.21356],[-80.8419,35.21358],[-80.84295,35.21476]],[[-80.84295,35.21476],[-80.84311,35.21493]],[[-80.84195,35.22982],[-80.84244,35.23026]]]}},{"type":"Feature","properties":{"id":"trail-cycleway-Wesley Heights Greenway","name":"Wesley Heights Greenway","kind":"trail","policy":"leashed","note":"Mecklenburg County greenways — leashed dogs allowed; designated dog parks are the off-leash exception.","source_url":"https://parkandrec.mecknc.gov/Places-to-Visit/Dog-Parks","venue":"little-sugar-creek-greenway","acres":null,"miles":1.0,"approx":false,"osm":null},"geometry":{"type":"MultiLineString","coordinates":[[[-80.85262,35.22781],[-80.85299,35.22794]],[[-80.85299,35.22794],[-80.85389,35.22825]],[[-80.8639,35.23396],[-80.86388,35.23377],[-80.86301,35.23282],[-80.8622,35.23238],[-80.8613,35.23201],[-80.861,35.232],[-80.86005,35.23151],[-80.8594,35.23113],[-80.85941,35.23094],[-80.85879,35.23042],[-80.85856,35.23043]],[[-80.85389,35.22825],[-80.85473,35.22852]],[[-80.86451,35.23508],[-80.86391,35.23427],[-80.86389,35.23403]],[[-80.85153,35.22728],[-80.85214,35.22752],[-80.85227,35.22743],[-80.85217,35.22769],[-80.85232,35.22762],[-80.85262,35.22781]],[[-80.85848,35.23044],[-80.85648,35.22918],[-80.855,35.22848]],[[-80.85856,35.23043],[-80.85848,35.23044]],[[-80.85484,35.22859],[-80.85502,35.22866]],[[-80.85473,35.22852],[-80.85484,35.22859]],[[-80.86389,35.23403],[-80.8639,35.23396]]]}},{"type":"Feature","properties":{"id":"trail-cycleway-Woodleaf Rd living end","name":"Woodleaf Rd living end","kind":"trail","policy":"leashed","note":"Mecklenburg County greenways — leashed dogs allowed; designated dog parks are the off-leash exception.","source_url":"https://parkandrec.mecknc.gov/Places-to-Visit/Dog-Parks","venue":"little-sugar-creek-greenway","acres":null,"miles":0.0,"approx":false,"osm":null},"geometry":{"type":"MultiLineString","coordinates":[[[-80.76201,35.22057],[-80.76184,35.22063]],[[-80.76184,35.22063],[-80.76177,35.22065]]]}},{"type":"Feature","properties":{"id":"trail-named-path-Beech Walk Trail","name":"Beech Walk Trail","kind":"trail","policy":"leashed","note":"County parks require leashed dogs on paths and in open areas.","source_url":"https://parkandrec.mecknc.gov/Places-to-Visit/Dog-Parks","venue":null,"acres":null,"miles":0.2,"approx":false,"osm":null},"geometry":{"type":"MultiLineString","coordinates":[[[-80.8204,35.29556],[-80.82001,35.29591],[-80.81952,35.29606],[-80.81859,35.29686],[-80.81841,35.2975],[-80.81859,35.29781]]]}},{"type":"Feature","properties":{"id":"trail-named-path-Briar Creek Greenway","name":"Briar Creek Greenway","kind":"trail","policy":"leashed","note":"County parks require leashed dogs on paths and in open areas.","source_url":"https://parkandrec.mecknc.gov/Places-to-Visit/Dog-Parks","venue":null,"acres":null,"miles":0.3,"approx":false,"osm":null},"geometry":{"type":"MultiLineString","coordinates":[[[-80.80283,35.209],[-80.80258,35.2089]],[[-80.80258,35.2089],[-80.80244,35.2089]],[[-80.80244,35.2089],[-80.80224,35.20879],[-80.80216,35.20827],[-80.80175,35.20779],[-80.80151,35.20765],[-80.80112,35.20773]],[[-80.80507,35.20718],[-80.8053,35.20748]],[[-80.8052,35.20709],[-80.80481,35.20693]],[[-80.80481,35.20693],[-80.80454,35.20733]],[[-80.8041,35.20757],[-80.80389,35.20814]],[[-80.80283,35.209],[-80.80313,35.20916]]]}},{"type":"Feature","properties":{"id":"trail-named-path-Creek Crossing Trail","name":"Creek Crossing Trail","kind":"trail","policy":"leashed","note":"County parks require leashed dogs on paths and in open areas.","source_url":"https://parkandrec.mecknc.gov/Places-to-Visit/Dog-Parks","venue":null,"acres":null,"miles":0.2,"approx":false,"osm":null},"geometry":{"type":"MultiLineString","coordinates":[[[-80.77133,35.20581],[-80.77145,35.20584],[-80.7717,35.20554]],[[-80.77122,35.20579],[-80.77133,35.20581]],[[-80.76908,35.20656],[-80.76983,35.20637],[-80.77013,35.20596],[-80.77055,35.20607],[-80.77122,35.20579]]]}},{"type":"Feature","properties":{"id":"trail-named-path-Evergreen Trail","name":"Evergreen Trail","kind":"trail","policy":"leashed","note":"County parks require leashed dogs on paths and in open areas.","source_url":"https://parkandrec.mecknc.gov/Places-to-Visit/Dog-Parks","venue":null,"acres":null,"miles":0.8,"approx":false,"osm":null},"geometry":{"type":"MultiLineString","coordinates":[[[-80.776,35.20759],[-80.77618,35.20723],[-80.77629,35.20586],[-80.77506,35.20464],[-80.7745,35.20447],[-80.77428,35.20469],[-80.77373,35.20449],[-80.77292,35.20469],[-80.77263,35.20456],[-80.77228,35.20473],[-80.77215,35.20506],[-80.77192,35.20511],[-80.77171,35.20497],[-80.77153,35.205],[-80.77185,35.20592],[-80.77154,35.20627],[-80.77145,35.2076]],[[-80.77112,35.2077],[-80.77042,35.20748],[-80.77022,35.20705],[-80.76998,35.20696],[-80.76975,35.20706]],[[-80.77145,35.2076],[-80.77112,35.2077]],[[-80.7763,35.20793],[-80.77684,35.20824]],[[-80.776,35.20759],[-80.77614,35.2077]],[[-80.77614,35.2077],[-80.7763,35.20793]]]}},{"type":"Feature","properties":{"id":"trail-named-path-Farm Brook Loop Entrance","name":"Farm Brook Loop Entrance","kind":"trail","policy":"leashed","note":"County parks require leashed dogs on paths and in open areas.","source_url":"https://parkandrec.mecknc.gov/Places-to-Visit/Dog-Parks","venue":null,"acres":null,"miles":0.0,"approx":false,"osm":null},"geometry":{"type":"MultiLineString","coordinates":[[[-80.86283,35.15768],[-80.86246,35.15729]]]}},{"type":"Feature","properties":{"id":"trail-named-path-Farmbrook Loop","name":"Farmbrook Loop","kind":"trail","policy":"leashed","note":"County parks require leashed dogs on paths and in open areas.","source_url":"https://parkandrec.mecknc.gov/Places-to-Visit/Dog-Parks","venue":null,"acres":null,"miles":1.7,"approx":false,"osm":null},"geometry":{"type":"MultiLineString","coordinates":[[[-80.8622,35.15762],[-80.86196,35.15814],[-80.86133,35.15886],[-80.86105,35.15891],[-80.86092,35.15874],[-80.86173,35.15823],[-80.86196,35.15783],[-80.86117,35.15805],[-80.86118,35.15816],[-80.86148,35.15816],[-80.86093,35.1584],[-80.8607,35.15801],[-80.85994,35.15764],[-80.85993,35.15732],[-80.86038,35.1574],[-80.86054,35.15753],[-80.86007,35.15746],[-80.86078,35.15794],[-80.86089,35.15792],[-80.86085,35.15765],[-80.86097,35.15754],[-80.86025,35.15716],[-80.86047,35.15712],[-80.86082,35.15727],[-80.86081,35.15713],[-80.86098,35.15702],[-80.8605,35.1568],[-80.86063,35.15699],[-80.86024,35.15684],[-80.86054,35.1562],[-80.86037,35.15582],[-80.86082,35.15573],[-80.86065,35.15537],[-80.86088,35.15537],[-80.86103,35.15558],[-80.86089,35.156],[-80.86107,35.15601],[-80.86121,35.15585],[-80.86152,35.15623],[-80.86197,35.15626],[-80.862,35.15634],[-80.86163,35.15632],[-80.86171,35.15724],[-80.86186,35.15726],[-80.86182,35.15677],[-80.86217,35.15645],[-80.86193,35.15685],[-80.86209,35.15717],[-80.86246,35.15729]],[[-80.86246,35.15729],[-80.86207,35.15746],[-80.86168,35.15743],[-80.86145,35.15701],[-80.86151,35.15671],[-80.86138,35.15644],[-80.86107,35.15629],[-80.86119,35.15647],[-80.86084,35.15633],[-80.86071,35.15639],[-80.86121,35.15666],[-80.86117,35.15674],[-80.86072,35.15664],[-80.86048,35.15645],[-80.86065,35.15677],[-80.86099,35.15683],[-80.86129,35.15707],[-80.86116,35.15774],[-80.8622,35.15762]]]}},{"type":"Feature","properties":{"id":"trail-named-path-Farmbrook Loop Connector","name":"Farmbrook Loop Connector","kind":"trail","policy":"leashed","note":"County parks require leashed dogs on paths and in open areas.","source_url":"https://parkandrec.mecknc.gov/Places-to-Visit/Dog-Parks","venue":null,"acres":null,"miles":0.0,"approx":false,"osm":null},"geometry":{"type":"MultiLineString","coordinates":[[[-80.86047,35.15927],[-80.86098,35.15888]]]}},{"type":"Feature","properties":{"id":"trail-named-path-Grant Street","name":"Grant Street","kind":"trail","policy":"leashed","note":"County parks require leashed dogs on paths and in open areas.","source_url":"https://parkandrec.mecknc.gov/Places-to-Visit/Dog-Parks","venue":null,"acres":null,"miles":0.0,"approx":false,"osm":null},"geometry":{"type":"MultiLineString","coordinates":[[[-80.87583,35.25337],[-80.87653,35.25369]]]}},{"type":"Feature","properties":{"id":"trail-named-path-Hardwood Trail","name":"Hardwood Trail","kind":"trail","policy":"leashed","note":"County parks require leashed dogs on paths and in open areas.","source_url":"https://parkandrec.mecknc.gov/Places-to-Visit/Dog-Parks","venue":null,"acres":null,"miles":0.2,"approx":false,"osm":null},"geometry":{"type":"MultiLineString","coordinates":[[[-80.82012,35.29493],[-80.81849,35.29548],[-80.8178,35.29618],[-80.8179,35.29625]],[[-80.81907,35.29522],[-80.81889,35.2944]]]}},{"type":"Feature","properties":{"id":"trail-named-path-Littlefield Street","name":"Littlefield Street","kind":"trail","policy":"leashed","note":"County parks require leashed dogs on paths and in open areas.","source_url":"https://parkandrec.mecknc.gov/Places-to-Visit/Dog-Parks","venue":null,"acres":null,"miles":0.0,"approx":false,"osm":null},"geometry":{"type":"MultiLineString","coordinates":[[[-80.80235,35.18242],[-80.80224,35.18231]]]}},{"type":"Feature","properties":{"id":"trail-named-path-Marion Diehl","name":"Marion Diehl","kind":"trail","policy":"leashed","note":"County parks require leashed dogs on paths and in open areas.","source_url":"https://parkandrec.mecknc.gov/Places-to-Visit/Dog-Parks","venue":null,"acres":null,"miles":1.6,"approx":false,"osm":null},"geometry":{"type":"MultiLineString","coordinates":[[[-80.85396,35.15936],[-80.85404,35.1596],[-80.85433,35.15963],[-80.85442,35.16008],[-80.85472,35.16015],[-80.85519,35.1606],[-80.85529,35.16124],[-80.85555,35.16132],[-80.85545,35.1612],[-80.8558,35.16104],[-80.8556,35.1616],[-80.85565,35.16182],[-80.85615,35.16217],[-80.85667,35.16305],[-80.85726,35.16302],[-80.85825,35.16257]],[[-80.85833,35.16258],[-80.85872,35.16254],[-80.85938,35.16218],[-80.85983,35.16155],[-80.86076,35.16093],[-80.8607,35.16071],[-80.86086,35.16042],[-80.86105,35.16048],[-80.86108,35.1611],[-80.86006,35.16219],[-80.85885,35.16286],[-80.85818,35.16286]],[[-80.85825,35.16257],[-80.85833,35.16258]],[[-80.85818,35.16286],[-80.85803,35.16292],[-80.8583,35.163],[-80.85823,35.16309],[-80.85801,35.1631],[-80.85779,35.16287],[-80.85742,35.16313]],[[-80.85742,35.16313],[-80.85739,35.16311]],[[-80.85739,35.16311],[-80.85682,35.16322],[-80.85607,35.16247],[-80.85565,35.16228],[-80.85552,35.16156],[-80.8552,35.16149]],[[-80.85356,35.15857],[-80.85334,35.15798],[-80.85297,35.15773],[-80.85293,35.1573],[-80.85304,35.15721],[-80.85392,35.15783],[-80.85377,35.15822],[-80.85362,35.15779],[-80.85333,35.15756],[-80.85318,35.1576],[-80.85346,35.1578],[-80.85369,35.15836],[-80.85371,35.15912]]]}},{"type":"Feature","properties":{"id":"trail-named-path-Marion Diehl Connector","name":"Marion Diehl Connector","kind":"trail","policy":"leashed","note":"County parks require leashed dogs on paths and in open areas.","source_url":"https://parkandrec.mecknc.gov/Places-to-Visit/Dog-Parks","venue":null,"acres":null,"miles":0.0,"approx":false,"osm":null},"geometry":{"type":"MultiLineString","coordinates":[[[-80.86086,35.16042],[-80.86055,35.16026],[-80.86024,35.16047]]]}},{"type":"Feature","properties":{"id":"trail-named-path-Marion Diehl Entrance","name":"Marion Diehl Entrance","kind":"trail","policy":"leashed","note":"County parks require leashed dogs on paths and in open areas.","source_url":"https://parkandrec.mecknc.gov/Places-to-Visit/Dog-Parks","venue":null,"acres":null,"miles":0.0,"approx":false,"osm":null},"geometry":{"type":"MultiLineString","coordinates":[[[-80.85304,35.15721],[-80.85256,35.15681]]]}},{"type":"Feature","properties":{"id":"trail-named-path-Midddle Third","name":"Midddle Third","kind":"trail","policy":"leashed","note":"County parks require leashed dogs on paths and in open areas.","source_url":"https://parkandrec.mecknc.gov/Places-to-Visit/Dog-Parks","venue":null,"acres":null,"miles":4.4,"approx":false,"osm":null},"geometry":{"type":"MultiLineString","coordinates":[[[-80.85724,35.15348],[-80.8577,35.15354],[-80.85808,35.15374],[-80.85818,35.15467],[-80.85833,35.15478],[-80.85826,35.15433],[-80.85847,35.15402],[-80.85845,35.15377],[-80.85745,35.15307],[-80.85847,35.15343],[-80.85843,35.15306],[-80.85823,35.15316],[-80.85789,35.15275],[-80.85796,35.15264],[-80.8584,35.15282],[-80.8587,35.15319],[-80.85862,35.15365],[-80.85871,35.15382],[-80.85917,35.15382],[-80.85951,35.15401],[-80.85981,35.15463],[-80.86024,35.15474],[-80.86006,35.15442],[-80.86025,35.15436],[-80.8604,35.15464],[-80.86067,35.15463],[-80.86161,35.15556],[-80.86168,35.15526],[-80.86123,35.15508],[-80.8608,35.15457],[-80.86083,35.15445],[-80.86122,35.15442],[-80.86133,35.1548],[-80.86209,35.15562],[-80.86222,35.15554],[-80.86219,35.15533],[-80.86173,35.15467],[-80.86178,35.15452],[-80.86249,35.15457],[-80.86347,35.15487],[-80.86364,35.15537],[-80.8634,35.1558],[-80.86292,35.15546],[-80.86257,35.15542],[-80.86235,35.15576],[-80.86182,35.15572],[-80.86166,35.15588],[-80.86198,35.15611],[-80.86231,35.15591],[-80.8627,35.15607],[-80.86268,35.15656],[-80.86228,35.15678],[-80.86246,35.15729],[-80.86307,35.1563],[-80.86383,35.15578],[-80.86418,35.15526],[-80.86421,35.15498],[-80.86397,35.15483],[-80.86402,35.15527],[-80.86368,35.15563],[-80.86384,35.15525],[-80.86353,35.15477],[-80.8619,35.15431],[-80.86098,35.15416],[-80.86018,35.15421],[-80.85987,35.15409],[-80.85941,35.15372],[-80.85899,35.15362],[-80.8587,35.15297],[-80.85762,35.15226],[-80.85752,35.15198],[-80.85738,35.15217],[-80.85716,35.15217],[-80.85724,35.15246],[-80.85735,35.15232],[-80.85738,35.15246],[-80.85755,35.15241],[-80.85747,35.15261],[-80.85718,35.15254],[-80.85688,35.15219],[-80.85659,35.1521],[-80.85632,35.15214],[-80.85632,35.15246],[-80.85604,35.1522],[-80.85584,35.1523],[-80.85616,35.15237],[-80.85575,35.15247],[-80.85609,35.15255],[-80.85607,35.15271],[-80.85685,35.15332],[-80.85691,35.15314],[-80.85653,35.15275],[-80.85651,35.1523],[-80.85674,35.15223],[-80.8567,35.15266],[-80.85709,35.15289],[-80.85724,35.15348]],[[-80.85607,35.15271],[-80.85576,35.15367],[-80.85595,35.15413],[-80.85646,35.15466],[-80.85691,35.15486],[-80.85594,35.15387],[-80.85616,35.15391],[-80.85598,35.1536],[-80.85635,35.15371],[-80.85618,35.15344],[-80.85627,35.15332],[-80.85662,35.15344],[-80.85639,35.15311],[-80.85667,35.15338],[-80.85691,35.15421],[-80.8575,35.15457],[-80.85768,35.15495],[-80.85732,35.15514],[-80.85687,35.15508],[-80.85632,35.15471],[-80.85601,35.15428],[-80.85606,35.15459],[-80.85582,35.15419],[-80.85575,35.15431],[-80.85741,35.15577],[-80.85781,35.15595],[-80.85772,35.15611],[-80.85554,35.1543],[-80.85549,35.15438],[-80.85588,35.15475],[-80.85733,35.15587],[-80.85748,35.15605],[-80.8572,35.15599],[-80.85542,35.15442],[-80.85577,35.15299],[-80.85597,35.15269],[-80.85607,35.15271]]]}},{"type":"Feature","properties":{"id":"trail-named-path-Nevin Park Disc Golf Course","name":"Nevin Park Disc Golf Course","kind":"trail","policy":"leashed","note":"County parks require leashed dogs on paths and in open areas.","source_url":"https://parkandrec.mecknc.gov/Places-to-Visit/Dog-Parks","venue":null,"acres":null,"miles":2.1,"approx":false,"osm":null},"geometry":{"type":"MultiLineString","coordinates":[[[-80.83498,35.3018],[-80.83504,35.3017],[-80.83446,35.30126],[-80.83436,35.30044],[-80.83412,35.30025],[-80.83369,35.30081],[-80.83317,35.29957],[-80.83175,35.29826],[-80.83161,35.29836],[-80.83101,35.29812],[-80.83028,35.29812],[-80.82942,35.29784],[-80.82942,35.29836],[-80.83023,35.2991],[-80.82985,35.29928],[-80.82929,35.29927],[-80.82953,35.29952],[-80.82978,35.29944],[-80.82978,35.29989],[-80.82945,35.30043],[-80.82965,35.30054],[-80.82964,35.30178],[-80.82919,35.3019],[-80.82826,35.30177],[-80.83013,35.30234],[-80.83028,35.30253],[-80.82965,35.30237],[-80.82988,35.303],[-80.83025,35.30345],[-80.83108,35.30384],[-80.83249,35.30384],[-80.83313,35.30411],[-80.83399,35.30395],[-80.83418,35.30519],[-80.83564,35.30529],[-80.83633,35.30514],[-80.8363,35.30473],[-80.83724,35.30466],[-80.83715,35.30444],[-80.83652,35.30406],[-80.83607,35.30332],[-80.83638,35.30352],[-80.83696,35.30337],[-80.83717,35.30246],[-80.83683,35.30181],[-80.83595,35.3018],[-80.8354,35.30202],[-80.83498,35.3018]]]}},{"type":"Feature","properties":{"id":"trail-named-path-Potter Road Trail","name":"Potter Road Trail","kind":"trail","policy":"leashed","note":"County parks require leashed dogs on paths and in open areas.","source_url":"https://parkandrec.mecknc.gov/Places-to-Visit/Dog-Parks","venue":null,"acres":null,"miles":0.4,"approx":false,"osm":null},"geometry":{"type":"MultiLineString","coordinates":[[[-80.7702,35.21046],[-80.7703,35.20993],[-80.76985,35.20914],[-80.76974,35.20843],[-80.76983,35.20732],[-80.76973,35.20705],[-80.7692,35.20696],[-80.76898,35.20624]],[[-80.76944,35.20946],[-80.76993,35.20927]]]}},{"type":"Feature","properties":{"id":"trail-named-path-Sloane Square Way","name":"Sloane Square Way","kind":"trail","policy":"leashed","note":"County parks require leashed dogs on paths and in open areas.","source_url":"https://parkandrec.mecknc.gov/Places-to-Visit/Dog-Parks","venue":null,"acres":null,"miles":0.0,"approx":false,"osm":null},"geometry":{"type":"MultiLineString","coordinates":[[[-80.79778,35.17402],[-80.79761,35.17406]]]}},{"type":"Feature","properties":{"id":"trail-named-path-Tech Loop","name":"Tech Loop","kind":"trail","policy":"leashed","note":"County parks require leashed dogs on paths and in open areas.","source_url":"https://parkandrec.mecknc.gov/Places-to-Visit/Dog-Parks","venue":null,"acres":null,"miles":1.4,"approx":false,"osm":null},"geometry":{"type":"MultiLineString","coordinates":[[[-80.85468,35.15474],[-80.85436,35.15503],[-80.85434,35.15519],[-80.8545,35.15518],[-80.85449,35.15504],[-80.85489,35.15478],[-80.85489,35.15505],[-80.85512,35.15512],[-80.85517,35.15529],[-80.85485,35.15515],[-80.85455,35.15528],[-80.85433,35.1555],[-80.85433,35.15571],[-80.854,35.1558],[-80.85377,35.15616],[-80.85398,35.15599],[-80.85403,35.1563],[-80.85475,35.15667],[-80.85425,35.15632],[-80.85458,35.15635],[-80.85525,35.15687],[-80.85581,35.1571],[-80.8562,35.15706],[-80.85642,35.15684],[-80.85663,35.15685],[-80.85657,35.15715],[-80.85645,35.1571],[-80.85637,35.15723],[-80.85617,35.15726],[-80.85664,35.15746],[-80.85678,35.15732],[-80.85665,35.15711],[-80.85681,35.15714],[-80.85694,35.15683],[-80.85686,35.15672],[-80.85637,35.15671],[-80.85662,35.15656],[-80.85635,35.15648],[-80.85628,35.15633],[-80.8561,35.15639],[-80.85613,35.15669],[-80.85596,35.1568],[-80.85549,35.15672],[-80.85514,35.15648],[-80.85579,35.15692],[-80.85614,35.15688],[-80.85581,35.15701],[-80.85494,35.1565],[-80.85466,35.15619],[-80.85429,35.15615],[-80.85441,35.15558],[-80.85463,35.15542],[-80.85513,35.15554],[-80.85462,35.15554],[-80.85465,35.15586],[-80.85552,35.15577],[-80.85586,35.15563],[-80.8556,35.15531],[-80.85562,35.15549],[-80.85542,35.1555],[-80.85505,35.15478],[-80.85468,35.15474]]]}},{"type":"Feature","properties":{"id":"trail-named-path-Tricklin' Stream Trail","name":"Tricklin' Stream Trail","kind":"trail","policy":"leashed","note":"County parks require leashed dogs on paths and in open areas.","source_url":"https://parkandrec.mecknc.gov/Places-to-Visit/Dog-Parks","venue":null,"acres":null,"miles":0.5,"approx":false,"osm":null},"geometry":{"type":"MultiLineString","coordinates":[[[-80.82132,35.29825],[-80.82171,35.29836],[-80.8225,35.29756],[-80.82296,35.29738],[-80.82329,35.29741],[-80.82341,35.29694],[-80.82299,35.2959],[-80.82277,35.29587],[-80.82247,35.2955],[-80.82253,35.29527],[-80.82273,35.29514],[-80.82253,35.29477],[-80.82203,35.29463],[-80.82152,35.29469],[-80.82101,35.29535]]]}},{"type":"Feature","properties":{"id":"trail-named-path-Tuliptree Trail","name":"Tuliptree Trail","kind":"trail","policy":"leashed","note":"County parks require leashed dogs on paths and in open areas.","source_url":"https://parkandrec.mecknc.gov/Places-to-Visit/Dog-Parks","venue":null,"acres":null,"miles":0.3,"approx":false,"osm":null},"geometry":{"type":"MultiLineString","coordinates":[[[-80.77617,35.20645],[-80.77519,35.20635],[-80.77487,35.20645],[-80.77445,35.20632],[-80.77411,35.206],[-80.77334,35.20617],[-80.77275,35.20561],[-80.7717,35.20554]]]}},{"type":"Feature","properties":{"id":"trail-named-path-Wetlands Trail","name":"Wetlands Trail","kind":"trail","policy":"leashed","note":"County parks require leashed dogs on paths and in open areas.","source_url":"https://parkandrec.mecknc.gov/Places-to-Visit/Dog-Parks","venue":null,"acres":null,"miles":1.2,"approx":false,"osm":null},"geometry":{"type":"MultiLineString","coordinates":[[[-80.82452,35.29532],[-80.82483,35.29578],[-80.8253,35.29741],[-80.82563,35.29772],[-80.82488,35.29829],[-80.82445,35.29897],[-80.82371,35.29944],[-80.82409,35.30022],[-80.82402,35.30064],[-80.82308,35.30107],[-80.82205,35.30059],[-80.82232,35.30044],[-80.82222,35.3002],[-80.82197,35.3002],[-80.82145,35.29992],[-80.82127,35.29981],[-80.8213,35.29966],[-80.82097,35.29952],[-80.82051,35.29951]],[[-80.82012,35.29493],[-80.82067,35.2945],[-80.82112,35.29375],[-80.82156,35.29254],[-80.82136,35.29218],[-80.82231,35.29209],[-80.82279,35.29239],[-80.82309,35.2928],[-80.82409,35.29515],[-80.82443,35.29528]],[[-80.82443,35.29528],[-80.82452,35.29532]]]}}]}
